Id	Handle	Title as Cymraeg	Title as English	Subtitle as Cymraeg	Subtitle as English	Emojis	Tags	Email	Phone Global Prefix	Phone Local Prefix	Phone Base	Website URL	Facebook URL	Instagram URL	YouTube URL	TikTok URL	Twitter URL	Street	City/Town/Etc	District/County/Etc	Province/State/Etc	Postcode	Country Code	Latitude	Longitude
ccb5c39b902fec517c06c70402112cf6	aberystwytharts		Aberystwyth Arts Centre	Cynnes . Cyfeillgar . Cymreig	Warm . Welcoming . Welsh	🏫🎭🎥🎵📅			44	0		https://aberystwythartscentre.co.uk/	https://facebook.com/aberystwytharts	https://instagram.com/aberystwytharts				Aberystwyth University, Penglais Campus	Aberystwyth	Ceredigion	Wales	SY23 3DE	UK	52.4182746	-4.0638533
9443b91c1e80b1c181ab89ebfb611954	aberadventures		Aber Adventures	Ysgol syrffio a bwrdd padlo. Llogi offer gan gynnwys caiacau.	Surf and paddle board school. Equipment hire including kayaks.	🏞🚣🏄📅		hello@aberadventures.com	44	0	7976 061514	https://aberadventures.com	https://facebook.com/AberAdventures	https://instagram.com/aberadventures				High Street	Borth	Ceredigion	Wales	SY24 5LJ	UK	52.4811252	-4.0507077
c37759f24a446f00809e62c7e822209f	athrolounge		Athro Lounge	Cartref oddi cartref ✨ Fegan, heb glwten ac yn gyfeillgar i gŵn! 🐶🪴 Dewch i fwyta/yfed gyda ni i gael naws dda 🍔🥂	A home away from home ✨ Vegan, gluten-free & dog friendly! 🐶🪴 Come eat/drink with us for some good vibes 🍔🥂	💧🍅☕️🍽			44	0		https://thelounges.co.uk/athro/	https://facebook.com/athrolounge	https://instagram.com/athrolounge				Welsh school, Alexandra Rd	Aberystwyth	Ceredigion	Wales	SY23 1LF	UK	52.413959	-4.0827059
dec04403a3da85bb0f1b6b71dd6033c0	bankvaultaber		Bank Vault	Bar Cwrw Crefft a Lleoliad Cerddoriaeth Fyw	Craft Beer Bar & Live Music Venue	💧🍺🎵📅		bar@bankvault.cymru	44	0	1970 600220	https://bankvault.cymru/	https://facebook.com/BankVaultAber	https://instagram.com/bankvaultaber	https://www.youtube.com/channel/UC_UjXitBAcwmkKwxP1fDLlA			1 New St	Aberystwyth	Ceredigion	Wales	SY23 2AT	UK		
d51fa5440a618c1dd1ac5b0873966092	aberystwythcliffrailway	Rheilffordd Y Graig	Aberystwyth Cliff Railway	Y rheilffordd glogwyn halio drydan hiraf ym Mhrydain.	The longest electric funicular cliff railway in Britain.	🏞🛤🌄🌅		manager@aberystwythcliffrailway.co.uk	44	0	1970 617642	https://www.aberystwythcliffrailway.co.uk	https://facebook.com/profile.php?id=100070622643487	https://instagram.com/aberystwythcliffrailway				Cliff Railway House, Cliff Terrace	Aberystwyth	Ceredigion	Wales	SY23 2DN	UK	52.4233168	-4.0809941
844e235c15d09f445a857022e2b1350f	aber.ac.uk	Prifysgol Aberystwyth	Aberystwyth University	🏆 Prifysgol y Flwyddyn Cymru 2024 🎓 Dros 150 mlynedd o ragoriaeth academaidd 🌊 Lleoliad glan môr syfrdanol	🏆 Welsh University of the Year 2024 🎓 Over 150 years of academic excellence 🌊 Stunning seaside location	🎓			44	0	1970 622900	https://www.aber.ac.uk/	https://facebook.com/aberystwyth.university	https://instagram.com/aberystwyth.university/	https://www.youtube.com/user/aberystwythuni		https://twitter.com/AberUni		Aberystwyth	Ceredigion	Wales	SY23 2AX	UK		
198bd172ad931d1e7762cd29cce22c35	llgc.org.uk	Llyfrgell Genedlaethol Cymru	National Library of Wales	Llyfrgell i Gymru a’r Byd 🏴󠁧󠁢󠁷󠁬󠁳󠁿	A Library for Wales and the World 🏴󠁧󠁢󠁷󠁬󠁳󠁿	📖		post@llgc.org.uk	44	0	1970 632 800	https://www.library.wales/	https://facebook.com/llgcymrunlwales						Aberystwyth	Ceredigion	Wales	SY23 3BU	UK		
b308491c1173a82f17b34670759b2317	thebookshopbythesea	Y Siop Lyfrau Ger Y Môr	The Bookshop By The Sea	Croeso i Siop Lyfrau ger y Môr! 🌊📚☀️ | Aberystwyth ~ Cymru | Cymuned 📚Cysylltiad 📚Cydwybod | Digwyddiadau 📖 Gŵyl Farddoniaeth | ✨ Ar agor 6 diwrnod! Mawrth - Sul 11-5✨	Welcome to the Bookshop by the Sea! 🌊📚☀️ | Aberystwyth ~ Wales | Community 📚Connection 📚Conscience | Events 📖 Poetry Festival | ✨Open 6 days! Tues- Sun 11-5✨	🛍📚📅🎵		TheBookshopByTheSea@gmail.com	44	0	7756 358507	https://thebookshopbythesea.co.uk/	https://thebookshopbythesea.co.uk/	https://instagram.com/thebookshopbythesea_	https://www.youtube.com/@thebookshopbythesea			7 Market Street	Aberystwyth	Ceredigion	Wales	SY23 1DL	UK	52.4147866	-4.0854121
7318f4679d84cd2dcdb271f9e2dcffe3	theglengower		The Glengower	Tafarn draddodiadol ar lan y môr yn gweini peint cracio, bwydlen gartref flasus ac 16 ystafell wely i westeion.	A traditional seafront pub serving a cracking pint, a delicious homemade menu and 16 guest bedrooms.	🍅💧🍺☕️🍽🍖🛎		info@glengower.co.uk	44	0	1970 626191	https://glengower.co.uk/	https://facebook.com/theglengower	https://instagram.com/theglengower				3 Victoria Terrace Flat 3	Aberystwyth	Ceredigion	Wales	SY23 2DH	UK	52.4205621	-4.0842485
40b55956d44b65d1d2ee6771d105c7e2	rummersbar		Rummers	Cerddoriaeth Fyw | Pizzas ac Ochrau | Bar | Opsiynau Fegan | Opsiynau Heb Glwten | Coctels | Agored Tan Hwyr	Live Music | Pizzas & Sides | Bar | Vegan Options | Gluten Free Options | Cocktails | Open Till Late	🍅💧🍺🍷🍽🎵		info@rummerswinebar.co.uk	44	0	1970 625177	https://www.rummerswinebar.co.uk	https://facebook.com/rummersaber	https://instagram.com/rummers_bar				63 Bridge St	Aberystwyth	Ceredigion	Wales	SY23 1QD	UK	52.4120264	-4.085356
f20c42405acf7feac446de5c8b677b22	pierpressureaberystwyth		Pier Pressure	Clwb nos	Nightclub	🏫🪩🌃		pleasure@royalpier.co.uk	44	0				https://instagram.com/pierpressureaberystwyth					Aberystwyth	Ceredigion	Wales	SY23	UK		
6a35bc0120832092cdf32033a3b3f478	brocmor	Broc-Môr		Mae Broc-Môr yn siop fach gyda chalon fawr wedi'i lleoli yn Aberystwyth, Ceredigion, Cymru, DU. Wedi’i hysbrydoli gan y natur hardd sydd o’n cwmpas a diwylliant Cymru.	Broc-Môr is a small shop with big heart based in Aberystwyth, Ceredigion, Wales, UK. Inspired by the beautiful nature that surrounds us and Welsh culture.	🛍🎁💌🏴󠁧󠁢󠁷󠁬󠁳󠁿		locheryberith@googlemail.com	44	0	7813 159687	https://www.welshhomegifts.co.uk	https://facebook.com/brocmor	https://instagram.com/brocmor				3 Sgwar Owain Glyndwr	Aberystwyth	Ceredigion	Wales	SY23 2JH	UK	52.4150291	-4.0831015
8ec2e5e0c767bea0dafe6c55174e764f	yrhenorsafaberystwyth	Yr Hen Orsaf	JD Wetherspoon	Tafarn arobryn ger gorsaf drenau Aberystwyth.	Award-winning pub by the Aberystwyth train station.				44	0		https://www.jdwetherspoon.com/pubs/all-pubs/wales/ceredigion/yr-hen-orsaf-aberystwyth						St.James's Place Station Chambers, Alexandra Rd	Aberystwyth	Ceredigion	Wales	SY23 1LN	UK	52.4140638	-4.0817329
90f47de012c4da0c44aa58b417faa3bf	pollyaberystwyth		Polly Aberystwyth	Siopau ffasiwn annibynnol arobryn i fenywod wedi'u lleoli yn nhref glan môr gorllewin Cymru, Aberystwyth.	Award winning independent women's fashion boutiques based in the west Wales seaside town of Aberystwyth.	🛍👚		ipolly7@me.com	44	0	1970 636636	https://pollyaberystwyth.com	https://facebook.com/PollyAberystwyth	https://instagram.com/pollyaberystwyth				4 Chalybeate St	Aberystwyth	Ceredigion	Wales	SY23 1HS	UK	52.4148611	-4.0834096
42eca134796e09c18351bea6d55c9cfd	prom.diner		Prom Diner	Caffi ☕️fish & chips🐟 parlwr hufen iâ🍦neu’r ardd gwrw orau yn Aber🍺🍹🍷 Yn y bôn rhywbeth at ddant pawb.	Cafe ☕️fish & chips🐟 ice cream parlour🍦or the best beer garden in Aber🍺🍹🍷Basically something for everyone.	🍅☕️🍽🏞🌄			44	0			https://facebook.com/prom.diner	https://instagram.com/prom.diner				Marine Terrace	Aberystwyth	Ceredigion	Wales	SY23 2BX	UK	52.4180498	-4.0841708
f2f98c42c0db1c61e6393ea2a969427c	farplaceanimalrescueaber		Farplace	Siop Elusen Achub Anifeiliaid Aberystwyth	Animal Rescue Charity Shop Aberystwyth	🛍💝		aberystwythshop@farplace.org.uk	44	0	1970 214061	https://www.farplace.org.uk/farplacestore/farplace-shop-aberystwyth/	https://facebook.com/farplaceshopaberystwyth	https://instagram.com/farplaceanimalrescueaber/				36-38 Great Darkgate Street	Aberystwyth	Ceredigion	Wales	SY23 1DE	UK	52.4142069	-4.0852682
416f0404196b76b0360fd52759a68570	hahav		HAHAV Charity Shop	Grŵp cymunedol sy’n cael ei arwain gan wirfoddolwyr yn darparu gofal amrywiol a chyfeillgarwch.	A volunteer led community group providing practical, psychosocial care, and friendship for people with chronic illness needing end of life care.	🛍💝			44	0		https://hahav.org.uk/hahav-shop-pier-street/						14 Pier Street	Aberystwyth	Ceredigion	Wales	SY23 2LJ	UK	52.4145332	-4.0863921
84bbd0c1629e1f222350e7a307e77a3a	oxfamcymru		Oxfam Abersystwtyh	Siop Elusen	Charity Shop	🛍💝			44	0		https://www.oxfam.org.uk/	https://facebook.com/oxfamaberystwyth	https://instagram.com/oxfam_cymru/				38 Terrace Rd	Aberystwyth	Ceredigion	Wales	SY23 2AE	UK	52.415827	-4.0836263
bd1ea996923f56822fcd68782f049453	redcrossshopaberystwyth		British Red Cross shops (Aberystwyth)	Storfa Clustog Fair a Llwyth	Thrift & Consignment Store	🛍💝			44	0	1970 624298	https://redcross.org.uk/shop/find-a-charity-shop/aberystwyth	https://facebook.com/BRCAberystwyth	https://instagram.com/redcrossretail/					Aberystwyth	Ceredigion	Wales	SY23	UK	52.415303	-4.08292
bf91e3b4e8c64481c314aa0274a5941e	climateshop		Climate Shop	Y siop sy'n tynnu carbon i lawr	The shop that draws down carbon	🛍💝			44	0		https://www.climateshop.org/	https://facebook.com/groups/climateshop/					38 Great Darkgate St	Aberystwyth	Ceredigion	Wales	SY23 1EA	UK	52.4142214	-4.0854628
fbf97ff1772f87199da8ec993ea6e882	drifteddesigns		Driftwood Designs	Ystod chwaethus a hardd o gynnyrch wedi’u dylunio gan yr artist Cymreig Lizzie Spikes. Casgliad o gardiau, printiau, posteri, nwyddau cartref a gweithiau celf gwreiddiol.	Stylish, beautiful range of products designed by Welsh artist Lizzie Spikes. Collection of cards, prints, posters, homewares and original artworks.	🛍🖼🏴󠁧󠁢󠁷󠁬󠁳󠁿			44	0	1970 611151	https://driftwooddesigns.co.uk/	https://facebook.com/lizziespikesdriftwood	https://instagram.com/drifteddesigns				16 Pier St	Aberystwyth	Ceredigion	Wales	SY23 2LJ	UK	52.4146228	-4.0863726
8f3774bbb54ad68791e39e291b950d95	aberystwythmarkethall		Aberystwyth Market Hall	Neuadd y Farchnad Hynafol Aberystwyth (Est. 1823). Cartref masnachwyr annibynnol gwych sy'n cynnig cynhyrchion a gwasanaethau o ansawdd uchel.	Ancient Market Hall Aberystwyth (Est. 1823). Home of great independent traders offering high quality products & services.	🛍🏬			44	0	7798 935492		https://facebook.com/AberystwythMarketHall	https://instagram.com/aberystwythmarkethall				Great Darkgate St	Aberystwyth	Ceredigion	Wales	SY23 1DW	UK	52.4139	-4.0867295
ca1e945fc044cc7b14f5ba6107e2df0f	shipandcastleaberystwyth	Llong ar Castell	Ship and Castle	Tafarn cwrw go iawn sydd wedi ennill gwobrau, sy'n cael sylw cyson yn y good beer guide. Tafarn wedi'i hadnewyddu'n ddiweddar gyda chymysgedd eclectig o fyfyrwyr a phobl leol.	Award winning real ale pub,regularly featured in the good beer guide. Recently refurbished pub with eclectic mix of students and locals.	💧🍺🏆		I.blair786@gmail.com	44	0	7773 778785	https://whatpub.com/pubs/CER/045/ship-castle-aberystwyth	https://facebook.com/shipandcastleaber	https://instagram.com/shipand_castle				1 High St	Aberystwyth	Ceredigion	Wales	SY23 1JG	UK	52.4132344	-4.0867877
5ea67aeef1cb7cadec8fb381f00e4587	dragonflybistrouk		Dragonfly Bistro	Rydym yn fegan/llysieuol bistro trwyddedig lawn; llawer o opsiynau heb glwten. Mae'r fwydlen yn newid yn rheolaidd.	We are a vegan/vegetarian fully licensed bistro; lots of gluten-free options. Menu changes regularly.	🍅🍽🥗		admin@dragonfly-bistro.com	44	0	7508 319091		https://facebook.com/dragonflybistrouk	https://instagram.com/dragonflybistrouk				7 St James's Square	Aberystwyth	Ceredigion	Wales	SY23 1DU	UK	52.413566	-4.0869051
ce4f205c5fba67e5121b0e8e3ebe555e	sophiescafeaberystwyth		Sophie's	Ein nod: Bwyd o ansawdd da a chroeso cyfeillgar!	Our aim: Good quality food and a friendly welcome!	🍅🍽		sophiescafe@btinternet.com	44	0	1970 626417	https://restaurantsnapshot.com/Sophies/	https://facebook.com/sophiesaberystwyth	https://instagram.com/officialsophiescafe_aber				27 N Parade	Aberystwyth	Ceredigion	Wales	SY23 2JN	UK	52.4153444	-4.082211
32468252d9742abfd139965e38c2d5f5	aberdyfiicecream		Aberdyfi Ice Cream Company	Hufen iâ cartref, sorbets, a mwy.	Homemade ice cream, sorbets, and more.	🍅🍦		hello@aberdyfiicecream.com	44	0		https://www.aberdyfiicecream.com/	https://facebook.com/AICCaberystwyth	https://instagram.com/aberdyfiicecream				19 Pier St	Aberystwyth	Ceredigion	Wales	SY23 2LJ	UK	52.4147084	-4.0861958
1134f684987fb82c20f9a416711ab0fc	aberoutdoors		Aberoutdoors	Yn cynnig amrywiaeth o weithgareddau dŵr, cyrsiau, gwerthu offer, llogi, ymgynghori a chyngor.	Offering a range of water based activities, courses, equipment sales, hire, consultation and advice.	🏞🏊🚣🏄📅		info@aberoutdoors.co.uk	44	0		https://www.aberoutdoors.co.uk/	https://facebook.com/aberoutdoors	https://instagram.com/aberoutdoors				The Old Marina Office, Abersytwyth Marina, Y, Lanfa	Trefechan	Ceredigion	Wales	SY23 1AS	UK	52.4100265	-4.0860192
9219dc81073b3139d400e5aeb7a1debc	amgueddfaceredigionmuseum		Amgueddfa Ceredigion Museum	Amgueddfa ac Oriel	Museum and Gallery	🏫🏛🏴󠁧󠁢󠁷󠁬󠁳󠁿		museum@ceredigion.gov.uk	44	0		https://ceredigionmuseum.wales/	https://facebook.com/amgueddfaceredigionmuseum	https://instagram.com/amgueddfa_ceredigion_museum				Amgueddfa Ceredigion Museum, 57 Terrace Road	Aberystwyth	Ceredigion	Wales	SY23 2AQ	UK	52.4162576	-4.0837762
fdb8938e8705fa108bd39ecf7dcbea59	banerabach		Bañera Bach	Trelar bar coctel symudol 🍸Digwyddiadau preifat a chorfforaethol / gwyliau / ffeiriau / priodasau\a🍸 Coctels / gwirodydd / cwrw / gwinoedd 🍸 Wedi'i leoli yn Aberystwyth	Mobile cocktail bar trailer 🍸Private and corporate events / festivals / fayres / weddings\n🍸Cocktails / spirits / beers / wines 🍸Based in Aberystwyth	💧🍷🍸🍽			44	0				https://instagram.com/banera_bach					Aberystwyth	Ceredigion	Wales	SY23	UK	52.415303	-4.08292
cd528efb10a3c7ec0e2b512103693e4a	baneraaber		Y Bañera	Bar Coctel | Lleoliad cerddoriaeth fyw | Cwrw Crefft Cymreig / Seidr | Lleoliad hwyr y nos | Chwaer gwmni i @banera_bach | Dosbarthiadau meistr a gweithdai | Digwyddiadau allanol	Cocktail Bar | Live music venue | Welsh Craft Ales / Ciders | Late night venue | Sister company to @banera_bach | Masterclasses and workshops | Outside events	💧🍅🍸🌃		cocktails@banera.cymru	44	0		https://www.banera.cymru	https://facebook.com/ybanera	https://instagram.com/baneraaber				Terrace Rd	Aberystwyth	Ceredigion	Wales	SY23 2AG	UK	52.4158623	-4.0834667
c3daac0a469a724e4aca3b755fb7416f	bwyddyfihwb		Bwyd Dyfi Hub	Adeiladu mudiad bwyd lleol gyda'n gilydd. Rydym yn cynnig bocsys ffrwythau a llysiau o safon gan ddefnyddio cynnyrch agroecolegol organig a lleol.	Building a local food movement together. We offer quality fruit and veg boxes using organic and local agroecologically grown produce.	🍅🛒		contact@bwyddyfihub.co.uk	44	0		https://openfoodnetwork.org.uk/bwyd-dyfi-hub/shop	https://facebook.com/bwyddyfihub	https://instagram.com/bwyddyfihwb				5 Great Darkgate Street	Aberystwyth	Ceredigion	Wales	SY23 1DE	UK	52.4150225	-4.0838949
39d596f4bd130ec6d930f2b73c81f166	medina.aberystwyth		Medina	Caffi a siop fwyd annibynnol Môr y Canoldir. Bwyd ffres, coffi gwych, hwyliau hapus.	Independent Mediterranean cafe & food shop.Fresh food, great coffee, happy vibes.	🍅☕️🍽🥗🍕🛒		info@medina-aberystwyth.co.uk	44	0	1970 358300	https://medina-aberystwyth.co.uk	https://facebook.com/medina.aberystwyth	https://instagram.com/medina.aberystwyth				10 Market Street	Aberystwyth	Ceredigion	Wales	SY23 1DL	UK	52.4147272	-4.0856015
f53a882b2fc89dbd0833cef9de183d60	aber.camping		Aber Camping	Maes gwersylla cyfeillgar a thawel wedi’i leoli ger tref glan môr hardd Aberystwyth, Gorllewin Cymru	Friendly and quiet campsite located near the beautiful seaside town of Aberystwyth, West Wales	🏞🏕		info@abercamping.com	44	0	800 999 1276	https://abercamping.com	https://facebook.com/profile.php?id=100083049593172	https://instagram.com/aber.camping				Sunnyside Villa, Old Goginan	Aberystwyth	Ceredigion	Wales	SY23	UK	52.4175802	-3.9313103
a14e0fe9f0b1394d1f0b1a394af8dc00	royalpier.aberystwyth		Royal Pier	Pleser, i gyd mewn un lle.	Pleasure, all in one place.	💧🍅🏫🍺🍽🌅👾🎱🏆		pleasure@royalpier.co.uk	44	0		https://www.royalpier.co.uk/	https://facebook.com/royalpier.aberystwyth	https://instagram.com/royalpier.aberystwyth		https://tiktok.com/@royalpier.aberystwyth			Aberystwyth	Ceredigion	Wales	SY23	UK	52.415303	-4.08292
aff15c6ba454b739bd59d0f9bf99ab55	agnellis2011		Agnelli's	Deli Eidalaidd dilys	Authentic Italian Deli	🍅🥪🇮🇹			44	0		https://agnellis.myshopify.com		https://instagram.com/agnellis2011				3 Bridge St	Aberystwyth	Ceredigion	Wales	SY23 1PY	UK	52.4139744	-4.0860368
f6359b56b9dc3548cb442699c665d817	walescoastpath		Wales Coast Path Guidebook	Arweinlyfrau swyddogol i Lwybr Arfordir Cymru	Official guidebooks to the Wales Coast Path	🏞🥾	#WalesCoastPath #LlwybrArfordirCymru	tony@northerneyebooks.co.uk	44	0		https://walescoastpath.co.uk/shop		https://instagram.com/wales_coast_path							Wales	SY23	UK	52.3595103	-3.9454436
483ad4c79e5a001b812e5163187838b3	whitehorseaberystwyth		The White Horse	Lleoliad cyfeillgar yn cynnig bwyd blasus, diodydd gwych a phrofiadau bythgofiadwy.	A friendly venue offering delicious food, great drinks and unforgettable experiences.	🍅💧🍺🍽🎵🏳‍🌈		whitehorse.aberystwyth@stonegatepubs.com	44	0	1970 615234	https://greatukpubs.co.uk/white-horse-aberystwyth	https://facebook.com/thewhitehorse.aberystwyth	https://instagram.com/whitehorse_aber				Upper Portland St, Aberystwyth, United Kingdom	Aberystwyth	Ceredigion	Wales	SY23	UK	52.4163831	-4.0833084
152db4f2a47d81c91a64e909fbc360e8	yokoswnb		Yoko's WNB	Clwb - Bar - Dawnsio - Bywyd Nos	Club - Bar - Dancing - Nightlife	💧🍸🌃🪩		wnbaber@gmail.com	44	0	1970 623963		https://www.facebook.com/groups/1389774438010631/user/100069772182466/	https://instagram.com/yokos_wnb				2 Pier St	Aberystwyth	Ceredigion	Wales	SY23 2LJ	UK	52.4142414	-4.086221
85d4f1921e257a210883cc630bbf4103	ciwb.yokos	Y Ciwb		Caffi yn ystod y dydd ☕️ Bwyty nos 🍴	Daytime cafè ☕️ Evening restaurant 🍴	💧☕🍸🍅🍽🐶🍖		wnbaber@gmail.com	44	0	1970 623963			https://instagram.com/ciwb.yokos		https://tiktok.com/@ciwb.yokos		2 Pier St	Aberystwyth	Ceredigion	Wales	SY23 2LJ	UK	52.4142414	-4.086221
eae7d8c60fcfa7d9f88fa43a401b0e7e	coffeenumber1		Coffee#1	Tai coffi annibynnol yn gweini’r coffi gourmet moesegol gorau, dewis rhagorol o gacennau ac amrywiaeth sawrus eithriadol.	Independent coffee houses serving the finest ethical gourmet coffee, outstanding cake selection & exceptional savoury range.	💧☕️🍽			44	0		https://www.coffee1.co.uk/locations/aberystwyth/	https://facebook.com/pages/Coffee1-Aberystwyth/310672882917160	https://instagram.com/coffeenumber1				Portland Street	Aberystwyth	Ceredigion	Wales	SY23 2DX	UK	52.4163831	-4.0833084
adcf1914e65b724ff3d97445249300f1	aberopera		Aber Opera	Ensemble amatur wedi'i leoli yn ardal Aberystwyth, sydd ag angerdd am Opera ac yn cynnal cyngherddau codi arian ar gyfer elusennau.	Amateur ensemble based in the Aberystwyth area, who have a passion for Opera and hold fundraising concerts for charity.	🏫🎭🎵			44	0			https://facebook.com/AberOpera	https://instagram.com/aber_opera					Aberystwyth	Ceredigion	Wales	SY23	UK	52.415303	-4.08292
98a468664c1d4dd5d21088e343a0efab	theangelinnaber		The Angel Inn	Bar cau diweddaraf Aber 🍻🍹🥃\ 3PM-4AM ⏰ Ystafell gefn ar agor bob penwythnos 🕺🏾 isafswm cerdyn £5, sori kiddos 💰	Aber’s latest closing bar 🍻🍹🥃\ 3PM-4AM ⏰ Backroom open every weekend 🕺🏾 £5 card minimum, sorry kiddos 💰	💧🍺🎵			44	0	1970 617878		https://facebook.com/theangelinnaber	https://instagram.com/theangelinnaber				57-59 Great Darkgate St, Aberystwyth, Wales SY23 1DW, UK	Aberystwyth	Ceredigion	Wales	SY23	UK	52.4139606	-4.0867637
e1827b1171def4ab24a38a50d52894c3	aradgoch		Cwmni Theatr Arad Goch	Cwmni Theatr i blant a phobl ifanc a Chanolfan Gelfyddydol aml-bwrpas gydag ystafelloedd i hurio yng nghanol Aberystwyth.	A touring theatre company for children and young people, and multi-purpose arts venue with spaces to hire on a flexible basis.	🏫🎭🎵📅		post@aradgoch.org	44	0	1970 617998	https://aradgoch.cymru	https://facebook.com/aradgoch	https://instagram.com/aradgoch				Bath St	Aberystwyth	Ceredigion	Wales	SY23 2NN	UK	52.4169314	-4.0835903
82eb98b6fc3a68efe618e79c2e658d2c	baravinaber	Baravin		Bar a bwyty gyda golygfeydd gwych a machlud. Pizza, pasta, byrgyrs, coctel arbennig, rhestr win, cwrw crefft, coffi, pwdinau.	Bar and restaurant with great views and sunsets. Pizza, pasta, burgers, cocktail specials, wine list, craft beers, coffee, desserts.	💧☕️🍺🍷🍅🍽🍨🍸🍔🍕🌄🌅		info@baravin.co.uk	44	0	1970 611189	https://baravin.co.uk/	https://facebook.com/baravinaber	https://instagram.com/baravinaber				1 Marine Terrace	Aberystwyth	Ceredigion	Wales	SY23 2AP	UK	52.416691	-4.0851475
a24ef07a6dd46b047a40e19e020c0647	gwestyrmarinehotelspa		Gwesty'r Marine Hotel & Spa	Gwesty a Sba ar Bromenâd Aberystwyth gyda golygfeydd godidog o’r môr! Bar a Phrydau • Priodas • Maes Parcio.	Hotel & Spa located on the Promenade of Aberystwyth with breathtaking sea views! Bar & Meals • Wedding • Car Park.	🛎💆🍅🍽💧🍺		info@gwestymarinehotel.co.uk	44	0	1970 612444	https://www.gwestymarinehotel.co.uk/	https://facebook.com/gwestymarinehotel	https://instagram.com/gwestyrmarinehotel_spa				Marine Terrace	Aberystwyth	Ceredigion	Wales	SY23 2DA	UK	52.4183108	-4.0842223
6989ee9020b7865851c38f2a7c4eca8a	mamafays		Mama Fay's	Mae Mama Fay's yn fwyty Caribïaidd sydd i'w gael yng nghanol Aberystwyth, yn gweini bwyd ffres a chartref. 🇯🇲	Mama Fay's is a Caribbean restaurant found in the heart of Aberystywth, serving fresh and homemade food. 🇯🇲	🍅🍽🇯🇲		mamafays@mamafays.com	44	0	1970 625 625	https://www.mamafays.com/	https://facebook.com/Mamafays	https://instagram.com/mamafays				2a Portland Road, Aberystywth, Wales, SY23 2NL, UK	Aberystwyth	Ceredigion	Wales	SY23	UK	52.4160259	-4.0832973
c9251976086c39ef376b93f75a07006a	siopffoto	Siop Ffoto		Rydym yn oriel luniau ac yn storfa argraffu a fframio lluniau.	We are photo gallery and photo printing and framing store.	🛍📷🖼		siopffoto@hotmail.com	44	0	1970 610129	https://siopffoto.co.uk	https://facebook.com/siopffoto	https://instagram.com/siop_ffoto				Llys Y Brenin, Terrace Road	Aberystwyth	Ceredigion	Wales	SY23 2AP	UK	52.4169218	-4.0842105
740c8868f42e95614c5c1ee6ad13b265	siop.inc	Siop Inc		📚 Llyfrau 🖋 Cardiau 💿 Cerddoriaeth 🎁 Anrhegion 🙂 Annibynnol	📚 Books 🖋 Greeting cards 💿 Music 🎁 Gifts 🙂 Independent	🛍📚💌🖼🏴󠁧󠁢󠁷󠁬󠁳󠁿		mail@siopinc.com	44	0	1970 626200	https://siopinc.com	https://facebook.com/SiopincAber	https://instagram.com/siop.inc				13 Stryd Y Bont	Aberystwyth	Ceredigion	Wales	SY23 1PY	UK	52.2421491	-4.2594561
45429e411e73c9a8289522a58eca4590	thecabinaberystwyth	Y Caban	The Cabin	Siop Goffi a Crepe. Rydym hefyd yn cynnig paninis a baguettes.	Coffee & Crepe Shop. We also offer paninis and baguettes.	🍅☕️🥪🍽			44	0	1970 615119		https://facebook.com/thecabinaberystwyth	https://instagram.com/thecabinaberystwyth				21B Pier St, Aberystwyth, Ceredigion, Wales, SY23 2LN UK	Aberystwyth	Ceredigion	Wales	SY23	UK	52.4148912	-4.0863779
31b31ddfcd30b41a503edf1351d472a5	thestarlingcloud		The Starling Cloud	Tafarn, bwyty, a gwesty yn Aberystwyth.	Pub, restaurant, and hotel in Aberystwyth.	💧🍺🍅🍽🛎		StarlingCloud.Aberystwyth@marstons.co.uk	44	0	1970 623743	https://www.starlingcloudpubaberystwyth.co.uk	https://facebook.com/thestarlingcloud	https://instagram.com/thestarlingcloud				Boulevard St Brieuc	Aberystwyth	Ceredigion	Wales	SY23 3TL	UK	52.4091616	-4.0751292
cfbc000b35b0a1d997e6e6ef662b753c	stmikesaber		St Michael's Church	⛪️ Eglwys Anglicanaidd Fywiog yn y Canolbarth. 🕚 Gwasanaethau dydd Sul : 10.30am a 6.30pm (am 7pm)	⛪️Lively Anglican Church in the mid Wales. 🕚Sunday services : 10.30am and 6.30pm (for 7pm)	⛪		office@stmikes.net	44	0	1970 617184	https://stmikes.org.uk	https://facebook.com/stmikesaber	https://instagram.com/stmikesaber				Laura Pl	Aberystwyth	Ceredigion	Wales	SY23 2AU	UK	52.4142552	-4.0877623
b74060a1e51a694f9e32d5982fdd922b	stpadarnschurch		Eglwys St Padarns Church	Mae Eglwys Padarn Sant yn Esgobaeth Tyddewi wedi bod yn safle ar gyfer addoliad Gristnogol ers y 6ed ganrif.	The church of S. Padarn in the Diocese of Saint Davids a focus for Christian worship dating back to the 6th Century.	⛪		vicarage.llanbadarn@gmail.com	44	0	1970 624638	https://stpadarns-llanbadarn.org.uk/	https://facebook.com/eglwysstpadarnschurch	https://instagram.com/stpadarnschurch				1 Heol-Y-Llan, Llanbadarn Fawr	Aberystwyth	Ceredigion	Wales	SY23 3SE	UK	52.4091025	-4.0610213
fbc8ee1fe64ba68bbb68aa8b5ff4248c	rheidolrailway		The Vale of Rheidol Railway	Un o'r rheilffyrdd stêm mwyaf golygfaol yn y DU; cludo teithwyr rhwng Aberystwyth a Phontarfynach ym Mynyddoedd Cambria, Cymru.	One of the most scenic steam railway's in the UK; carrying passengers between Aberystwyth and Devil's Bridge in the Cambrian Mountains, Wales.	🏞🏫🛤🏛		info@rheidolrailway.co.uk	44	0	1970 625819	https://www.rheidolrailway.co.uk/	https://facebook.com/rheidolrailway	https://instagram.com/rheidolrailway				Vale of Rheidol Railway, Park Avenue	Aberystwyth	Ceredigion	Wales	SY23 1PG	UK	52.411123	-4.079114
faafe2b4ce8cf4139ae5ce77c34eaccc	rheidolridingcentre		Rheidol Riding Centre	Canolfan Farchogaeth, Hyfforddi ac Arholi a Gymeradwywyd gan Gymdeithas Ceffylau Prydain	British Horse Society Approved Riding, Training and Examination Centre	🏞🏇		rheidolridingcentre@gmail.com	44	0	1970 880863	https://rheidol-riding-centre.co.uk						Capel Bangor	Aberystwyth	Ceredigion	Wales	SY23 4EL	UK	52.3951967	-3.9799709
dd6eed29a8dd645d7790a614232485ca	harleysaberystwyth		Harley's Bar Aberystwyth	Lleoliad cerddoriaeth, bar, clwb. Rhan annatod o'ch noson allan yn Aber.	Music venue, bar, club. An integral part of your night out in Aber.	💧🍺🪩🌃🎵			44	0			https://facebook.com/profile.php?id=100094230442427	https://instagram.com/harleys_aber				21 Eastgate , Aberystwyth, United Kingdom	Aberystwyth	Ceredigion	Wales	SY23	UK	52.4151552	-4.0855971
3c0f40057e160d67350a4ead30444851	thehoptimistaberystwyth		The Hoptimist	Aberystwyth Lleoliad Un ar gyfer Gwylio Chwaraeon!	Aberystwyth's Number One Venue for Watching Sport!	💧🍺🏆			44	0			https://facebook.com/TheHoptimistAber	https://instagram.com/thehoptimistaberystwyth				Alexandra Rd	Aberystwyth	Ceredigion	Wales	SY23 1LE	UK	52.413959	-4.0827059
f65d4e117f2c6b1efa7182d13a72a1a0	theacademyaber		The Academy Aber	Clwb nos poethaf Aberystwyth! Brolio rhai o'r DJs gorau o Lundain i Ibiza!	Aberystwyths hottest nightclub! Boasting some of the best DJs from London to Ibiza!	💧🏫🪩🌃		Aberystwythacademy@gmail.com	44	0	7476 902656		https://facebook.com/academyaber	https://instagram.com/theacademyaber				Great Darkgate St	Aberystwyth	Ceredigion	Wales	SY23 1DE	UK	52.4142348	-4.0857228
663dfed8d2936387575f09d75acdd647	antalyarestaurantaberystwyth		Antalya Restaurant	Bwyty Twrcaidd a Bwydlen Bar	Turkish Restaurant And Bar Menu	🍅🍽🇹🇷			44	0	1970 630752		https://facebook.com/antalyarestaurantaber	https://instagram.com/antalya_restaurant_aberystwyth				35 Pier St	Aberystwyth	Ceredigion	Wales	SY23 2LN	UK	52.4154314	-4.0869345
d91c9972175c76a3175537ad379a2b2c	ambassadorsaberystwyth		Ambassadors Aberystwyth	Parlwr hufen iâ mwyaf a gorau, eitemau traeth ac anrhegion Cymreig yn Aberystwyth!	Biggest and best ice cream parlour, beach items and welsh gifts in Aberystwyth!	🍅🍦🛍🎁		ambassadorsaber@gmail.com	44	0			https://facebook.com/ambassadorsaber	https://instagram.com/ambassadorsaberystwyth					Aberystwyth	Ceredigion	Wales	SY23	UK	52.415303	-4.08292
14f6000fa7b9de7502112f26d6b12f51	castlehotelaberystwyth		Castle Hotel	Gwesty moethus wedi'i adfer 100m o'r traeth ym mhrifddinas ddiwylliannol Cymru, Aberystwyth. Dim ond tafliad carreg i ffwrdd o'r castell, y marina a'r harbwr.	Restored luxury hotel situated 100m from the beach in the cultural capital of Wales, Aberystwyth. Just a stones throw away from the castle, marina and harbour.	🛎💧🍺🎱🎵		info@castlehotelaberystwyth.co.uk	44	0	1970 612188	https://castlehotelaberystwyth.co.uk	https://facebook.com/castlehotelaber	https://instagram.com/castlehotelaberystwyth				outh Road	Aberystwyth	Ceredigion	Wales	SY23 1JW	UK	52.4123259	-4.0879936
02f45040333164381ffd9ee5481d659b	commodorecinemaaber		Commodore Cinema	Sinema annibynnol gyda sgrin sengl yn dangos y datganiadau prif ffrwd diweddaraf, ynghyd â bar lolfa.	Independent cinema with single screen showing the latest mainstream releases, plus a lounge bar.	🏫🎥			44	0	1970 612421	https://www.commodorecinema.com/	https://facebook.com/commodorecinemaaber	https://instagram.com/commodorecinemaaber				Bath St	Aberystwyth	Ceredigion	Wales	SY23 2NN	UK	52.4169314	-4.0835903
e5b70b32cc71197fe0bd64ae35a64102	libanus1877		Libanus 1877	Mae Libanus 1877 yn cynnig cyfle unigryw i chi weld blockbuster mewn moethusrwydd llwyr!	Libanus 1877 offers you a unique opportunity to view a blockbuster in complete luxury!	🏫🎥		libanus1877@icloud.com	44	0	1970 871042	https://libanus1877.com	https://facebook.com/libanus1877	https://instagram.com/libanus1877				Gerlan Chapel, High St	Borth	Ceredigion	Wales	SY24 5JA	UK	52.4878972	-4.0511302
59d6e9c40268c0375915bcdb2e59559f	aberdabbadoo		Aberdabbadoo	Cyflenwr teithiau cerdded celfydd yn Aber.	Deliverer of arty walks in Aber.	🏞🥾🎭		alisonpierse@gmail.com	44	0	7807 699118	https://aberdabbadoo.com/about/	https://facebook.com/aberdabbadoo	https://instagram.com/aber_dabbadoo					Aberystwyth	Ceredigion	Wales	SY23	UK	52.415303	-4.08292
8c4c66ef5184293c12b67e87c1889e0f	forestbathingandmindfulness.com		Aberystwyth Nature Connection & Forest Bathing	Ymdrochi yn y goedwig - o'r Japaneaidd Shinrin Yoku - Ymwybyddiaeth Ofalgar mewn Natur ar gyfer iechyd a lles	Forest bathing - from the Japanese Shinrin Yoku - Mindfulness in Nature for health and wellbeing	🏞🥾		lucyforestbathing@gmail.com	44	0	7887 642887	https://forestbathingandmindfulness.com	https://facebook.com/ForestBathingwithLucy						Aberystwyth	Ceredigion	Wales	SY23	UK	52.415303	-4.08292
597156c5079cdcb5e0d415cd33f0eaec	ybeicchai	Y Beic Chai	The Chai Bike	Merch o Aberystwyth yn dosbarthu chai ar ei beic e-cargo.	Aberystwyth girl delivering chai via her e-cargo bike.	🏞☕🏳‍🌈		ybeicchai@gmail.com	44	0		https://linktr.ee/ybeicchai	https://facebook.com/profile.php?id=100089304585181	https://instagram.com/ybeicchai				The Bandstand, Marine Terrace	Aberystwyth	Ceredigion	Wales	SY23 2BY	UK	52.4176156	-4.0847737
607f5aa9d4f57ba6db695b2dc97a220c	gayberystwythbooks		Gayberystwyth Books	llyfrau LHDT.	LGBT books.	🛍📚🏳‍🌈		gayberystwyth@gmail.com	44	0	7975 756875		https://facebook.com/p/Gayberystwyth-Books-61553129895437/	https://instagram.com/gayberystwyth_books				Unit 8, Aberystwyth Market Hall, Great Darkgate Street	Aberystwyth	Ceredigion	Wales	SY23 1DW	UK	52.4136681	-4.0866994
0d77b4953b108d711d2575fd2ccf2cc7	bottleandbarrel		Bottle & Barrel	Bar hamddenol gyda chwrw crefft mawr, gwinoedd a dewis gin.	Relaxed bar with a large craft beer, wines and gin selection.	💧🍺🍷		bar@bottleandbarrel.cymru	44	0	1970 625888	http://www.bottleandbarrel.cymru/	https://facebook.com/bottlebarrelaber	https://instagram.com/bottle_barrel				14 Cambrian Place	Aberystwyth	Ceredigion	Wales	SY23 1NB	UK	52.41475	-4.0828272
2a26daf32596364e8f3e56a5277d9440	tyseidr	Tŷ Seidr Siop Bar a Botel	Tŷ Seidr Bar & Bottle Shop	Siop Cider Bar a Botel gydag awyrgylch groesawgar lle gallwch arogli'r cyfuniad perffaith o gemau bwrdd a bwydlen cwrw seidr a chrefft helaeth.	Cider bar & bottle shop with a welcoming atmosphere where you can savor the perfect combination of board games & extensive cider and craft beer menu.	💧🍺🐶🃏		tyseidr@gmail.com	44	0	1970 615662	https://www.tyseidr.cymru/	https://www.facebook.com/tyseidr/	https://www.instagram.com/tyseidr/			https://twitter.com/tyseidr	16 Corporation St	Aberystwyth	Ceredigion	Wales	SY23 2BT	UK	52.415901	-4.0847676
73db2b357cf8065b2de64594ce617813	iriesaber		Irie's Rum Bar	Digwyddiadau blasu, clwb gwyddbwyll wythnosol, a naws gyfeillgar.	Tasting events, weekly chess club, and a friendly vibe.	💧🍸🍺		studioirie@gmail.com	44	0	1970 623228		https://facebook.com/IriesAber	https://instagram.com/iriesaber				Thespian Street	Aberystwyth	Ceredigion	Wales	SY23 2JW	UK	52.4156973	-4.0800639
201cf906c0c9ab30ec3200767eab9ba0	vintagevibeswales		Vintage Vibes	Darparu Aberystwyth a thu hwnt gyda'r vintage GORAU am filltiroedd!!! Llaw wedi'i ddewis gyda ❤️	Providing Aberystwyth and beyond with the BEST vintage for miles!!! Hand selected with ❤️	🛍👚		vintagevibeswales@gmail.com	44	0	7468 844435		https://facebook.com/vintagevibesaber	https://instagram.com/vintage_vibes_wales				52 Terrace Rd	Aberystwyth	Ceredigion	Wales	SY23 2AQ	UK	52.4163306	-4.0841596
b5482321a6febbf9e06a90c084ca8d68	bootsuk		Boots	Fferyllfa	Pharmacy	🛍🌼💊			44	0	1970 612292	https://www.boots.com/	https://facebook.com/BootsUK	https://instagram.com/bootsuk				55-57 Terrace Rd	Aberystwyth	Ceredigion	Wales	SY23 2AF	UK	52.4164194	-4.0838141
0fed71f7c5720f8f037e64dd69eeb354	bronglaisfriends		Bronglais Hospital	Damweiniau ac Achosion Brys, Uned Mân Anafiadau, a Mwy	Accident and Emergency, Minor Injuries Unit, and More	🌼🏥			44	0	1970 623131	https://hduhb.nhs.wales/healthcare/hospitals-and-centres/hospitals/bronglais-hospital/	https://facebook.com/HywelDdaHealthBoard	https://instagram.com/bronglaisfriends				Caradog Road	Aberystwyth	Ceredigion	Wales	SY23 1ER	UK	52.4156975	-4.0711888
90a2548fff84e98f127a79ef53d7f06e	aberystwythbandstand		Aberystwyth Bandstand	Digwyddiadau ar y Promenâd	Events on the Promendade	📅🎵🖼			44	0		http://www.aberystwyth.gov.uk/en/leisure/bandstand	https://facebook.com/pages/Aberystwyth-Bandstand/211979645627318	https://instagram.com/aberystwythbandstand				Marine Terrace	Aberystwyth	Ceredigion	Wales	SY23 2BY	UK	52.4173023	-4.0843674
cf65b066d16346fcf9c503236d3c8027	ygornel	Y Gornel		Coffi | Brecwast | Cinio | Bwyty	Coffee | Breakfast | Lunch | Restaurant	💧☕🍅🍽		ygornel22@gmail.com	44	0	1970 634357		https://facebook.com/YGornelAberystwyth	https://instagram.com/ygornel				11 Princess St	Aberystwyth	Ceredigion	Wales	SY23 1DX	UK	52.4135267	-4.0864841
cbc40e3cf78b5646b2829080f8e3c0e6	bar46aber		Bar 46	🍺 Bar Chwaraeon 🎤 Cerddoriaeth Fyw & DJs 🍔 Bwyd 🖥 Dros 10 teledu 🎱 Pool 🎯 Darts 🧱 Jenga 🎮 Play Station	🍺 Sports Bar 🎤 Live Music & DJs 🍔 Food 🖥 Over 10 TVs 🎱 Pool 🎯 Darts 🧱 Jenga 🎮 Play Station	💧🍺🍅🍽🍔🎱🎯👾		Bar46.stephens@gmail.com	44	0	7399 011769		https://facebook.com/bar46aber	https://instagram.com/bar46aber				46 Bridge St	Aberystwyth	Ceredigion	Wales	SY23 1QB	UK	52.4123819	-4.0852386
8142d2e725c4380d137eeadf6a15fb14	starbucks		Starbucks Aberystwyth	Siop goffi	Coffeeshop	💧☕			44	0	1970 624977	https://starbucks.co.uk	https://facebook.com/sbucksaber	https://instagram.com/starbucks				49 Great Darkgate St	Aberystwyth	Ceredigion	Wales	SY23 1DW	UK	52.4141599	-4.0863369
e4d476ec4999adb660eec3b578c1ad73	ultracomida		Ultracomida Aberystwyth	Mae ultracomida yn gadwyn fach, annibynnol o siopau sy'n arbenigo mewn bwyd o Gymru, Sbaen a Ffrainc.	ultracomida is a small, independent chain of shops specialising in food from Wales, Spain, and France.	💧🍷🍅🥪🇪🇸🇫🇷		shoporders@ultracomida.co.uk	44	0	1970 630686	https://ultracomida.co.uk/	https://facebook.com/ultracomidadelicatessen	https://instagram.com/ultracomida				31 Pier St	Aberystwyth	Ceredigion	Wales	SY23 2LN	UK	52.4152691	-4.0868081
1ca214fb9f174782982ff6dce2e6a086	pennaucrafts		Pennau Crafts & Coffee Shop	Mae Siop Grefftau a Choffi Pennau, bedair milltir i’r gogledd o Aberystwyth, wedi bod yn denu ymwelwyr gyda choginio cartref o safon ac anrhegion Cymreig unigryw ers 1983.	Pennau Craft & Coffee Shop, four miles North of Aberystwyth, has been tempting visitors with quality home cooking and unique Welsh gifts since 1983.	💧☕🛍🎁		pennaucrafts@gmail.com	44	0	1970 820050	https://www.pennau.co.uk	https://facebook.com/PennauCraft	https://instagram.com/pennau_crafts				Bow Street	Carmarthenshire	Ceredigion	Wales	SY24 5AA	UK	52.4537416	-4.0195183
e798958cefa021a7331f2c0e67e66ba8	bmocoaching		BMO Coaching	Nod ysbrydoli, ymgysylltu ac addysgu'r gymuned leol trwy bŵer chwaraeon.	Aiming to inspire, engage and educate the local community through the power of sport.	🌼💪🎽🎈		info@bmocoaching.co.uk	44	0	7812 410392	https://bmocoaching.co.uk/	https://www.facebook.com/BMOcoaching	https://www.instagram.com/BMOcoaching					Aberystwyth	Ceredigion	Wales	SY23	UK		
ac37ce29f03e65c12c8f1a2ae97d354c	clivecontinentalmenswear		Clive Continental Menswear	Dillad Dynion o Ansawdd Uchel	High Quality Menswear Outfitters	🛍👚		sales@clivemenswear.co.uk	44	0	1970 617531	https://clivemenswear.co.uk	https://facebook.com/CliveMenswear	https://instagram.com/clive_continental_menswear				43/45 Terrace Rd	Aberystwyth	Ceredigion	Wales	SY23 2AE	UK	52.4159631	-4.0834695
b7c0ef056eab9b64bb789a07d7338964	aberdashery		Aberdashery	Siop ffabrig yng nghanol Aberystwyth sy'n gwerthu ffabrigau hardd o ansawdd uchel ar gyfer gwniadwaith, cwiltio, clustogwaith, trimins a llawer mwy.	A fabric shop in the heart of Aberystwyth selling beautiful high quality fabrics for dressmaking, quilting, upholstery, trimmings & lots more.	🛍🧶		Info@aberdashery.com	44	0	1970 358591	https://www.aberdashery.com/	https://facebook.com/Aberdasheryfabrics	https://instagram.com/aberdashery				8 Market St	Aberystwyth	Ceredigion	Wales	SY23 1DL	UK	52.4146559	-4.0855526
9e28abb36729c7b9e60761f445ed107a	herdandywolf08		Her Dandy Wolf	Siop Ffordd o Fyw	Lifestyle Shop • Woman Man Child Home	🛍👚		hello@herdandywolf.co.uk	44	0	1970 624435	https://www.herdandywolf.co.uk	https://facebook.com/her.d.wolf	https://instagram.com/herdandywolf08				6 Market St	Aberystwyth	Ceredigion	Wales	SY23 1DL	UK	52.4146063	-4.0854812
3ffb7fc18b45acf8a1d8ab0125b5a2b0	maeth.wholefoods		Maeth Y Meysydd	🍊 Siop bwyd cyfan yn Aberystwyth 🚚 Rydyn ni'n dosbarthu nwyddau cartref	🍊 Whole food shop in Aberystwyth 🚚 We do home deliveries	🍅🛒		Maethymeysydd@hotmail.com	44	0	1970 612946		https://facebook.com/Maeth-y-Meysydd-520882167948069	https://instagram.com/maeth.wholefoods				16 Chalybeate Street	Aberystwyth	Ceredigion	Wales	SY23 1HX	UK	52.4143087	-4.0833544
dc93e1837897f63704a9a94a5d820708	jonahsaber	Marchnad Bysgod	Jonah's Fishmarket	Marchnad Pysgod Ffres	Fresh Fish Market	🍅🐟		info@jonahsfish.co.uk	44	0	1970 615492	https://www.jonahsfish.co.uk	https://facebook.com/JonahsFishMarket	https://instagram.com/jonahsaber				10A Cambrian Place	Aberystwyth	Ceredigion	Wales	SY23 1NT	UK	52.4146799	-4.0830473
a9da9a12cb611da792d78dab3eff4d4b	aberystwythgolf		Aberystwyth Golf Club	Cwrs gwych Harry Vardon, yn cynnig golygfeydd godidog dros fae Aberteifi a thref myfyrwyr fywiog Aberystwyth.	A superb Harry Vardon course, offering stunning views over cardigan bay and the vibrant student town of Aberystwyth.	🏞⛳		secretary@aberystwythgolfclub.com	44	0	1970 615104	https://aberystwythgolfclub.com	https://facebook.com/AberystwythGolfClub	https://instagram.com/aberystwythgolf				Brynymor Road	Aberystwyth	Ceredigion	Wales	SY23 2HY	UK	52.4225209	-4.0764809
c71ccc0bd5aa7fb547d285f549dcf38c	awakenyourintuition		Rachel Harvey Yoga	Cyfuniad hudol o ioga, rheoleiddio'r system nerfol a doethineb cylchol.	A magical combination of yoga, nervous system regulation and cyclical wisdom.	🌼🧑‍⚕️🧘		rachelharveyyoga@gmail.com	44	0		https://www.rachelharveyyoga.com/	https://facebook.com/rachelharveyyoga	https://instagram.com/awaken_your_intuition					Aberystwyth	Ceredigion	Wales	SY23	UK	52.415303	-4.08292
4fa1d437c9c72c5de232bf2e843b28b5	aciwbigo	Siwan Morus		Myfyrdod Qigong Aciwbigo	Acupuncture Qigong Meditation	🌼👩‍⚕️		siwanmor@gmail.com	44	0		https://www.aciwbigo.com	https://facebook.com/profile.php?id=100010404546801						Aberystwyth	Ceredigion	Wales	SY23	UK	52.415303	-4.08292
1d360be012f5ad2ac1823397d5e99ac7	ycwpsthecoopersarms	Y Cŵps	The Coopers Arms	Myfyriwr-lleol i lawr y grisiau, lleoliad cerddoriaeth a chelfyddyd i fyny'r grisiau. Cefnogi'r sîn gerddoriaeth DIY leol.	Student-local downstairs, music and arts venue upstairs. Supporting the local DIY music scene.	💧🍺🎵🌃		sid@theresthatdog.com	44	0			https://facebook.com/AberystwythCwps	https://instagram.com/y-cwps-the-coopers-arms				2 Pound Pl	Aberystwyth	Ceredigion	Wales	SY23 1LX,	UK	52.4158543	-4.0780247
4ecb63f599ed9449137355c72251403d	ecohubaber	Hwb Eco Aber	Eco Hub Aber	Lle i rannu syniadau… Lle i gydweithio…	A place to share ideas… A place to co-work together…	🧑‍💻️🚲		ecohubaber@gmail.com	44	0		https://ecohubaber.com	https://facebook.com/ecohubaber	https://instagram.com/ecohubaber				The Arcade, 5 Bath St	Aberystwyth	Ceredigion	Wales	SY23 2AQ	UK	52.4165772	-4.0839291
418f73f112040cbb935e7933a7bda33a	misha.and.the.kings		Misha and the Kings	Band indie roc 4 darn 🎸 wedi ei leoli yng Nghymru📍🏴󠁧󠁢󠁷󠁬󠁳󠁿	4 piece indie rock band 🎸 based in Wales, UK📍🇬🇧🏴󠁧󠁢󠁷󠁬󠁳󠁿	🎸		hello@mishaandthekings.co.uk	44	0				https://instagram.com/misha.and.the.kings					Aberystwyth	Ceredigion	Wales	SY23	UK	52.415303	-4.08292
02661b61399b00d83c52047bbf4642af	paperwingduo		PaperWing	Deuawd acwstig bach gyda sain MAWR! Chrissii Wing a Tim Barratt sydd wedi'u lleoli yng Ngorllewin Cymru	A small acoustic duo with a BIG sound! Chrissii Wing & Tim Barratt based in West Wales	🎸		paperwingduo@live.co.uk	44	0	7790 000475		https://facebook.com/paperwingduo	https://instagram.com/paperwingduo					Aberystwyth	Ceredigion	Wales	SY23	UK	52.415303	-4.08292
5e52798ae6c290df66493583b294bb92	therefreshers		The Refreshers	Band grwfi'r 80au	Groovy '80's band	🎸							https://www.facebook.com/groups/6613234735399776												
21dba10679a46bc7fc5016b693f129ff	aberystwyth-castle-walk		Aberystwyth Castle Walk - 0.8 km	Mae'r daith fer hon wedi'i chanoli o amgylch Castell Aberystwyth. Mae hon yn gaer Edwardaidd a adeiladwyd mewn ymateb i ryfel cyntaf Cymru ar ddiwedd y 13eg ganrif. Disodlodd gaer gynharach ychydig i'r de a rheolaeth arni bob yn ail rhwng y Gymraeg a'r Saesneg yn ystod ei hanes. Troodd Charles I yn bathdy ym 1637 a chynhyrchu swllt arian ac yn 1649 cafodd ei sleftio gan Oliver Cromwell. Taith gerdded ddiddorol gyda llawer o hanes i'w gwerthfawrogi.	This short walk is centred around Aberystwyth Castle. This is an Edwardian fortress that was built in response to the First Welsh War in the late 13th century. It replaced an earlier fortress slightly south and control of it alternated between the Welsh and English during its history. Charles I turned it into a mint in 1637 and produced silver shillings and in 1649 it was slighted by Oliver Cromwell. An interesting stroll with much history to appreciate.	🏞🥾						https://www.alltrails.com/en-gb/trail/wales/ceredigion/aberystwyth-castle													
07c12bb5b0459049fde4a093e79b4538	aberystwyth-loop-to-constitution-hill-walk		Aberystwyth Loop to Constitution Hill Walk - 5.5 km	Mae hwn yn llwybr crwn hyfryd yn Aberystwyth sy'n dechrau ar lan y môr ac yn ymweld â phen Woods ar frig y Cyfansoddiad Hill a Penglais. Mae'r llwybr hwn yn arbennig o brydferth yn y gwanwyn pan fydd y blodau gwyllt yn eu blodau. Mae'r llwybr hwn yn gymharol wastad ac addas ar gyfer ystod eang o oedrannau a lefelau ffitrwydd. Gall y llwybr hwn fod yn fwdlyd ar ôl glaw, felly argymhellir esgidiau gwrth -ddŵr. Efallai y byddwch chi'n dod ar draws da byw ar hyd y llwybr hwn felly cynghorir arweinwyr os dewch â'ch ci.	This is a lovely circular route in Aberystwyth that begins on the seaside and visits the top of Constitution Hill and Penglais Woods. This trail is especially beautiful in spring when the wildflowers are in bloom. This route is relatively flat and suitable for a wide range of ages and fitness levels. This route may be muddy after rain, so waterproof shoes are recommended. You may encounter livestock along this route so leads are advised if you bring your dog.	🏞🥾						https://www.alltrails.com/en-gb/trail/wales/ceredigion/aberystwyth-loop-to-constitution-hill													
9f8388f3d544a9c12935bf842b4d50fd	ceredigion-coast-path-from-aberystwyth-to-ynyslas-walk		Ceredigion Coast Path from Aberystwyth to Ynyslas Walk - 15.9 km	Mae llwybr arfordir Ceredigion yn llwybr troed pellter hir, pellter hir ar arfordir Ceredigion yng Nghymru. Yn ei gyfanrwydd, mae'n 96 cilomedr (60 milltir) o hyd, yn rhedeg ar hyd arfordir Bae Aberteifi o Aberteifi i Ynyslas. Mae'r darn hwn yn mynd â chi o Aberystwyth i Ynyslas, gan gynnig golygfeydd godidog ar draws Bae Aberteifi ac Aber Dovey. Gan ddechrau yn Aberystwyth, dilynwch y ffordd heibio'r hen harbwr i Traath Y de (Traeth y De) a pharhewch ar y llwybr o amgylch tir y castell.	The Ceredigion Coast Path is a waymarked, long-distance footpath on the coast of Ceredigion in Wales. In its entirety, it is 96 kilometres (60 miles) in length, running along the coast of Cardigan Bay from Cardigan to Ynyslas. This stretch takes you from Aberystwyth to Ynyslas, offering stunning views across Cardigan Bay and the Dovey Estuary. Starting in Aberystwyth, follow the road past the Old Harbour to Traeth y De (South Beach) and continue on the path around the Castle Grounds.	🏞🥾						https://www.alltrails.com/en-gb/trail/wales/ceredigion/ceredigion-coast-path-aberystwyth-to-ynyslas													
e70201a99cf635ddece5d70feb320077	constitution-hill-walk		Constitution Hill Walk - 1.6 km	Mae hon yn daith fer fendigedig i fyny Hill Constitution. Bydd gennych olygfeydd hyfryd o Aberystwyth ac mae'r arfordir yn ffurfio'r brig. Efallai y bydd rhannau o'r llwybr hwn wedi gordyfu mewn rhai tymhorau cyn y cynghorir pants hir. Mae'r llwybr hwn yn gymharol wastad ac addas ar gyfer ystod eang o oedrannau a lefelau ffitrwydd. Edrychwch ar y caffi, camera obscura, a rheilffordd Cliff ar y brig!	This is a wonderful short walk up Constitution Hill. You will have lovely views of Aberystwyth and the coast form the top. Parts of this trail may be overgrown in certain seasons so long pants are advised. This route is relatively flat and suitable for a wide range of ages and fitness levels. Check out the cafe, camera obscura, and Cliff Railway at the top!	🏞🥾						https://www.alltrails.com/en-gb/trail/wales/ceredigion/constitution-hill													
d7d6d2f1ff746b74ffed80ea985e06c5	devils-bridge-nature-falls-trail-walk		Devil's Bridge Nature Falls Trail Walk - 1.0 km	Mae'r llwybr hardd hwn ym mhont Devil yn arwain ymwelwyr trwy'r ceunant coediog serth hwn ym Mynyddoedd Cambrian. Mae'r daith gerdded gylchol 45 munud yn cynnwys 675 o risiau serth, anwastad sy'n eich arwain i lawr y Ceunant Rheidol ac yn ôl i fyny'r ochr arall gyda golygfeydd syfrdanol o raeadr dal Mynach dal. Ar y ffordd yn ôl i fyny, gallwch sefyll yn ogof y lladron a chyffwrdd â'r rhaeadr o'r safbwynt decio os yw wedi bod yn bwrw glaw yn drwm iawn cyn eich ymweliad.	This beautiful route in Devil's Bridge leads visitors through this steep wooded gorge within the Cambrian Mountains. The circular 45-minute walk consists of 675 steep, uneven steps that lead you down the Rheidol Gorge and back up the other side with breathtaking views of the tall Mynach waterfall. On the way back up, you can stand in the robbers' cave and touch the waterfall from the decking viewpoint if it's been raining very heavily prior to your visit.	🏞🥾						https://www.alltrails.com/en-gb/trail/wales/ceredigion/devil-s-bridge-falls-nature-trail													
f7d94cdcab68a8f1b2ccf16d4d70fab8	nant-y-moch-to-plynlimmon-fawr-walk		Nant y Moch to Plynlimmon Fawr Walk - 14.0 km	Dyma lwybr gyda rhai llethrau i fyny egnïol ond bydd yn rhoi gwobr golygfeydd pellgyrhaeddol, trawiadol iawn. Gall fod yn wlyb dan draed ar ôl glaw a chyda'r bryniau, byddwch chi eisiau esgidiau solet. Mae'r golygfeydd trwy gydol y daith gerdded, nid ar y pwyntiau uchaf yn unig, yn drawiadol iawn. Dewch â byrbryd, dŵr a chamera (neu ffôn) i wneud y gorau ohono.	Here is a route with some strenuous upward inclines but will give the reward of far reaching, very striking views. It can be wet underfoot after a rain and with the hills, you will want solid footwear. The scenery throughout the walk, not just at the highest points, is really impressive. Bring a snack, water and a camera (or phone) to make the most of it.	🏞🥾						https://www.alltrails.com/en-gb/trail/wales/ceredigion/nant-y-moch-to-plynlimmon-fawr													
dcc2ace52ede37ff75aede69a1684a57	pumlumon-summit-walk		Pumlumon Summit Walk - 12.6 km	Yma bydd gennych heic gymedrol sy'n mynd â chi o'r A44 i gopa Plynlimon. Mae'n daith gerdded bert gyda golygfeydd gwych yn edrych ar draws y tir agored i lawr i'r gronfa islaw. Ar gyfer yr anturus iawn, gallwch barhau ymhellach o uwchgynhadledd Plynlimon a gwneud eich ffordd i ben pumlumon sy'n uwchgynhadledd arall ychydig bellter ymhellach i'r dwyrain.	Here you will have a moderate hike that takes you from the A44 to the summit of Plynlimon. It is a pretty walk with fantastic views looking across the open land down to the reservoir below. For the very adventurous, you can continue further from the summit of Plynlimon and make your way to Pen Pumlumon which is another summit a short distance further east.	🏞🥾						https://www.alltrails.com/en-gb/trail/wales/ceredigion/pumlumon-summit													
c3505f4d77ff7f0a9549a6d8bf531c98	llyn-pendam-circular-walk		Llyn Pendam Circular Walk - 3.7 km			🏞🥾						https://www.alltrails.com/en-gb/trail/wales/ceredigion/llyn-pendam-circular													
f4af0eb9e0da0da6ae2b2e331b7f9b53	penglais-woods-walk		Penglais Woods Walk - 2.1 km	Mae hwn yn llwybr coetir braf a hawdd trwy Penglais Woods, sy'n arbennig o brydferth yn y gwanwyn pan fydd y clychau glas yn carpedu llawr y goedwig. Mae'r llwybr yn dechrau gydag esgyniad, ond yn fuan yn lefelu allan wrth i chi archwilio'r coetir. Mae'n cynnig golygfeydd gwych o'r arfordir cyn mynd yn ôl i lawr i ben y llwybr.	This is a nice and easy woodland trail through Penglais Woods, which is particularly beautiful in spring when the bluebells carpet the forest floor. The trail starts with an ascent, but soon levels out as you explore the woodland. It offers some great views of the coast before heading back down to the trailhead.	🏞🥾						https://www.alltrails.com/en-gb/trail/wales/ceredigion/penglais-woods													
e87baf19ee85fa4c747baf0e15651eff	river-rheidol-path-walk		River Rheidol Path Walk - 5.8 km			🏞🥾						https://www.alltrails.com/en-gb/trail/wales/ceredigion/river-rheidol-path													
93c6deba3f538b3ae1e348988b61ef87	twmpathaberystwyth		Twmpath Aberystwyth	Ni yw band gwerin 'Twmpath Aberystwyth'. Croeso i'n tudalen facebook! Rydym yn cynnal twmpath misol (dawns werin Gymreig) yn Neuadd Buarth. Mynediad am ddim, cyfraniad gwirfoddol. Dewch draw i ymuno yn y dawnsio!	We are the 'Twmpath Aberystwyth' folk band. Welcome to our facebook page! We hold a monthly twmpath (Welsh folk dance) at Buarth Hall. Free entry, voluntary donation. Come along and join in the dancing!	🎸			44	0			https://facebook.com/twmpathaberystwyth					Buarth Hall, Stanley Rd	Aberystwyth	Ceredigion	Wales	SY23 1LB	UK	52.4142308	-4.0788701
21f08ec78e5c29c17b05e2a667a60b3f	aberystwythsilverband		Aberystwyth Silver Band	Band Pres Traddodiadol	Traditional Brass Band	🎸		aberystwythsilverband@gmail.com	44	0		https://www.aberystwythsilverband.co.uk/	https://facebook.com/AberystwythSilverBand	https://instagram.com/aberystwythsilverband					Aberystwyth	Ceredigion	Wales	SY23	UK	52.415303	-4.08292
b2a5e08d7902a5b10e7401ad918daaf2	eastgatedentalaber		Eastgate Dental Aberystwyth	👄 Deintyddiaeth gosmetig | 👑 Deintyddiaeth mewnblaniadau | 🦷 Sythu dannedd | 🌟 Bondio cyfansawdd | 🔥 Gwynnu dannedd	👄 Cosmetic dentistry | 👑 Implant dentistry | 🦷 Teeth straightening | 🌟 Composite bonding | 🔥 Teeth whitening	🌼🦷		enquiries@eastgatedental.org.uk	44	0	1970 612457	https://eastgatedental.org.uk/	https://facebook.com/profile.php?id=100063568179843	https://instagram.com/eastgatedentalaber				29 Eastgate	Aberystwyth	Ceredigion	Wales	SY23 2AR	UK	52.4150083	-4.0859299
9bb81021c99e65755cb6d4a4cf0f4bf9	churchsurgery	Meddygfar Llan	Church Surgery	Meddygfa a Fferyllfa	GP Surgery & Pharmacy	🌼🏥💊		enquiries.w92014@wales.nhs.uk	44	0	1970 624855	https://churchsurgery.com	https://facebook.com/churchsurgery					Portland Street	Aberystwyth	Ceredigion	Wales	SY23 2DX	UK	52.4163831	-4.0833084
9d89c1ce1f57214999a737f51ebf2d79	louisejaggerreflexology		Louise Jagger Advanced Clinical Reflexology	Adweitheg glinigol ofalgar a chyfannol yn Aberystwyth a Gorllewin Cymru	Caring and holistic clinical reflexology in Aberystwyth and West Wales	🌼👩‍⚕️		louise@louisejaggerreflexology.co.uk	44	0	7931 568585	https://louisejaggerreflexology.co.uk/	https://facebook.com/people/Louise-Jagger-Advanced-Clinical-Reflexology/100093698907582/					Trewylan, Brynymor Road	Aberystwyth	Ceredigion	Wales	SY23 2HX	UK	52.4229027	-4.0802548
9e515e766fbe5a5d3d828e5c4ec9319d	naturesdivineoils		Natures Divine Oils	Rwy'n arwain y rhai sy'n barod i wneud newid iach yn eu ffordd o fyw, + patrymau gwaith (pe dymunwch), i greu ysbrydoliaeth + cysylltiad sy'n arwain at well iechyd, ynghyd â'r boddhad twymgalon o alinio â hyblygrwydd + rhyddid wrth helpu eraill.	I guide those who are ready to make a healthy change in lifestyle, +work patterns(should you wish), to create inspiration+connection leading to better health, plus the heartfelt satisfaction of aligning with flexibility + freedom whilst helping others.	🌼👩‍⚕️		natures_divineoils@hotmail.com	44	0		https://www.naturesdivineoils.com/							Aberystwyth	Ceredigion	Wales	SY23	UK	52.415303	-4.08292
21dcce1cf2c584b81bcd2e29cb316bf2	gofitwitharwa		GoFit with Arwa	Mae Arwa Zakir yn hyfforddwr ffitrwydd profiadol sy'n arbenigo mewn colli pwysau, adeiladu cryfder, a hyfforddiant ffitrwydd i fenywod, gan gynnwys mamau ôl-enedigol, gyda dosbarthiadau personol a stiwdio, gan gynnwys Cardio Kickboxing, Hyfforddiant Cryfder, Power Yoga, Iron Yoga, Yoga Llif, Erobeg , a CrossFit.	Arwa Zakir is an experienced fitness instructor specializing in weight loss, strength building, and fitness training for women, including postpartum moms, with in-person & studio classes, including Cardio Kickboxing, Strength Training, Power Yoga, Iron Yoga, Yoga Flow, Aerobics, and CrossFit.	🌼💪		Gofit.arwa@gmail.com	44	0	7487 811503	https://gofitwitharwa.business.site	https://www.facebook.com/profile.php?id=61563550531923	https://instagram.com/gofit.arwa/	https://www.youtube.com/@gofitwitharwa	https://www.tiktok.com/@gofitwitharwa			Aberystwyth	Ceredigion	Wales	SY23 1DW	UK		
9c01f1e12d5a8977ce2610c484fbc91e	homecafeaberystwyth		Home Cafe	Mae ein caffi, sy'n swatio yn Aberystwyth, yn cynnwys dau lawr ac ardal eistedd awyr agored swynol, gan greu'r lleoliad perffaith ar gyfer unigolion, cyplau a theuluoedd.	Our cafe, nestled in Aberystwyth, features two floors and a charming outdoor seating area, creating the perfect setting for individuals, couples, and families.	💧🍅☕️🍽		info@homecafe.uk	44	0	1970 617513	https://homecafe.uk/	https://facebook.com/p/Home-cafe-restaurant-100062145506862/					11 Pier St	Aberystwyth	Ceredigion	Wales	SY23 2LN	UK	52.4145753	-4.0860783
78ef336f3dcd60a4d4daf39cce364dd8	aberlock		Aberlock Locksmith 	Mae Aberlock yn darparu gwasanaethau saer cloeon proffesiynol o ansawdd uchel i gwsmeriaid domestig a masnachol.	Aberlock provides high quality and professional Locksmith services for domestic and commercial customers.				44	0	7453 819891	https://www.aberlock.com	https://facebook.com/ABERLOCK					Market Hall, Great Darkgate St	Aberystwyth	Ceredigion	Wales	SY23 1DW	UK	52.4140098	-4.0869622
cdd48cbf82445bb8ed98d287931634b7	mountainwarehouse		Mountain Warehouse	Chwaraeon, gwersylla, a dillad ac offer awyr agored.	Sports, camping, and outdoor clothes and equipment.	🛍🎽		info@mountainwarehouse.com	44	0		https://www.mountainwarehouse.com/	https://facebook.com/MountainWarehouse	https://www.instagram.com/mountainwarehouse/					Aberystwyth	Ceredigion	Wales	SY23	UK	52.415303	-4.08292
9f54ad1e8462e1d9cd44fc0cee51eaf2	trespass		Trespass	Cadwyn awyr agored arbenigol sy'n gwerthu dillad, offer chwaraeon a gwersylla, gan gynnwys ategolion.	Specialist outdoor chain selling clothing, sport & camping gear, including accessories.	🛍🎽		support@trespass.zendesk.com	44	0	1970 627338		https://facebook.com/trespass					37-39 Terrace Rd	Aberystwyth	Ceredigion	Wales	SY23 2AE	UK	52.4158186	-4.0832666
f719136c86ebc7e2b5f24868c79ff920	llewduaberystwyth	Yr Hen Lew Du	The Old Black Lion	Bar, Byrgyrs, Ffris wedi'u Llwytho, Bwyd Cartref	Bar, Burgers, Loaded Fries, Homecooked Food	💧☕🍅🍽🍔		​ yrhenlewduaberystwyth@gmail.com	44	0	1970 615378  	https://www.yrhenlewduaberystwyth.com	https://facebook.com/llewduaberystwyth	https://instagram.com/llewduaberystwyth				14-16 Bridge St	Aberystwyth	Ceredigion	Wales	SY23 1PZ	UK	52.4134514	-4.0855809
57c8b6d09c248ceef4284c4b153b3ef0	kittyfisheraberystwyth		Kitty Fisher	Mae ein dewis yn cynnwys bagiau llaw, pyrsiau, waledi ac ategolion ar gyfer pob oed. Yn angerddol mewn cadw siopau stryd fawr.	Our range includes handbags, purses, wallets and accessories for all ages. Passionate in retaining high street shops.	🛍👛			44	0			https://facebook.com/profile.php?id=100078883717326	https://instagram.com/kittyfisheraberystwyth					Aberystwyth	Ceredigion	Wales	SY23	UK	52.415303	-4.08292
1c40bce00a4bd4a9576fcec3de891534	coastalantiques.co.uk		Coastal Antiques & Vintage Clothing	Dau lawr o Hen Bethau, Dodrefn ac Eitemau Addurnol ar gyfer eich cartref a'ch gardd. Yn ogystal â dewis mawr o ddillad ac ategolion vintage fforddiadwy o safon.	Two floors of Antiques, Furniture & Decorative items for your home & garden. Plus a large selection of quality, affordable vintage clothing and accessories.	🛍🕰👚		info@coastalantiques.co.uk	44	0	01970 358100	https://coastalantiques.co.uk/	https://facebook.com/coastalanqiques	https://instagram.com/coastalantiques				23 Bridge Street	Aberystwyth	Ceredigion	Wales	SY23 1PZ	UK	52.4133042	-4.0858229
70b8a0085ca39e879e699e160e36c77b	hartshideawayaberystwyth		Hart's Hideaway						44	0				https://instagram.com/harts_hideaway_aberystwyth					Aberystwyth	Ceredigion	Wales	SY23	UK	52.415303	-4.08292
7914892e06fe8cc948bf6206bab76723	pobpawendoggroomingaberystwyth		Pob Pawen Dog Grooming						44	0			https://facebook.com/profile.php?id=100092216829478						Aberystwyth	Ceredigion	Wales	SY23	UK	52.415303	-4.08292
c4db1264ac1391795ec0584e81b9b74f	orielybont		Oriel y Bont	Oriel Gelf a Fframio Lluniau	Art Gallery and Picture Framing	🛍🖼		enquiries@orielybont.co.uk	44	0	1970 627307	https://www.orielybont.co.uk/	https://facebook.com/OrielyBont					4 Bridge St	Aberystwyth	Ceredigion	Wales	SY23 1PY	UK	52.4142774	-4.0861162
d95cd131609f15ccc12dea7c411414dc	cerddystwythmusicshop		Cerdd Ystwyth Music	Siop gerddoriaeth annibynnol, yn gwerthu cerddoriaeth ddalen Gymreig a chyffredinol, recordiadau, llyfrau ac offerynnau, wedi'i lleoli yn Aberystwyth.	An independent music shop, selling both Welsh and general sheet music, recordings, books and instruments, based in Aberystwyth.	🛍🎵			44	0	1970 623382	http://www.cerddystwyth.co.uk/	https://facebook.com/groups/117792001568290	https://instagram.com/cerddystwythmusicshop/			https://twitter.com/CerddYstwyth	7 Portland St	Aberystwyth	Ceredigion	Wales	SY23 2DT	UK	52.4159435	-4.0838739
6b371cbcea2129ece44fbdaa0da8445d	gameparkaberystwyth		Gamepark	Ni yw stociwr mwyaf Aber o’r holl gemau bwrdd, gemau cardiau a gemau pen bwrdd, fel Warhammer.	We are Aber’s biggest stockist of all board games, card games and tabletop games, like Warhammer.	🛍🎲🃏		abergamepark@outlook.com	44	0	1970 624900	https://abergamepark.co.uk	https://facebook.com/aberGamepark/	https://instagram.com/gamepark_aberystwyth/				2 Northgate Street	Aberystwyth	Ceredigion	Wales	SY23	UK	52.4160283	-4.0799119
caabe1a75208dce2716428c6ee7dc690	ripridewear		Rip Ride Wear					Rip-ridewear@europe.com	44	0	1970 358220	http://www.rip-ride.store/	https://facebook.com/ripridewear1	https://instagram.com/ripridewear				7 Eastgate	Aberystwyth	Ceredigion	Wales	SY23	UK	52.4155004	-4.0849742
ece7be2ef70e369431e76a2942c4f464	helmsmanguesthouse		Helmsman Guesthouse	Gwely a Brecwast ar y prif bromenâd. Golygfeydd o'r môr ac mae gan bob ystafell en-suite	Bed & Breakfast on the main promenade. Sea views and all rooms have en-suite	🏫🛎		bookings@helmsmanguesthouse.co.uk	44	0	1970 624132 	https://helmsmanguesthouse.co.uk/	https://www.facebook.com/helmsman.guesthouse	https://instagram.com/helmsmanguesthouse				43 Marine Terrace	Aberystwyth	Ceredigion	Wales	SY23 2BX	UK	52.4181053	-4.0840396
c89ef32a921118f2d936211283240729	harmonyoftheheart		Louise Hurford	Ioga ac Encil, Tylino Shiatsu. Canolbarth Cymru.	Yoga & Retreats, Shiatsu Massage. Mid Wales.	🌼🧘	#yoga #retreats #shiatsu #hotstonemassage #harmonyoftheheart		44	0		http://www.harmonyoftheheart.co.uk/		https://instagram.com/harmonyoftheheart				Bow Street	Aberystwyth	Ceredigion	Wales	SY24	UK	52.44217	-4.0281019
55b230cca1611ee926a431f99b2698a0	tesco		Tesco	Siop fwyd	Grocery Store	🍅🛒🛍🏬			44	0	345 610 6735	https://tesco.co.uk	https://facebook.com/tesco	https://instagram.com/tescofood/				Park Ave	Aberystwyth	Ceredigion	Wales	SY23 1PB	UK	52.4122989	-4.0813196
4fa2fac216ca83f1815026c09a243862			Tesco Express	Siop fwyd	Grocery Store	🍅🛒																			
3ae3c42ceff6d4c335ad667c19cf9633	marksandspencer		Marks & Spencer	Siop Groser a Siop Adrannol	Grocery Store & Department Store	🍅🛒🛍🏬			44	0	020 7409 1708	https://www.marksandspencer.com/	https://facebook.com/pages/Marks-Spencer/153965327956847	https://instagram.com/marksandspencer/					Aberystwyth	Ceredigion	Wales	SY23	UK	52.415303	-4.08292
63fef9c0a13bc5801d376ef3c976a7e2			Spar	Siop Groser	Grocery Store	🍅🛒																			
baf832157237ac74809e6386629734b7	hannahbuckbodypiercing		Hannah Buck Body Piercing	Tyllu'r corff proffesiynol a storfa gemwaith 💎 Titaniwm gradd mewnblaniad ac aur 14ct+ 💎	Professional body piercing & jewellery store 💎 Implant grade titanium and 14ct+ gold 💎	🌼🦋			44	0		https://www.hannahbuck.co.uk/	https://facebook.com/hannahbuckbodypiercing	https://instagram.com/hannahbuck_bodypiercing				Baker Street Studio, 4 Baker Street	Aberystwyth	Ceredigion	Wales	SY23 2BJ	UK	52.4154093	-4.0842558
56e9e0f49a6e23aac629fe3731c86a54	leandashairandbeauty		Leanda's Hair & Beauty	Salon Gwallt a Harddwch yn Aberystwyth	Hair & Beauty salon in Aberystwyth	🌼💇			44	0	1970 624170		https://facebook.com/Leandasutton1/	https://instagram.com/leandashairandbeauty				17 Northgate Street	Aberystwyth	Ceredigion	Wales	SY23	UK	52.4159755	-4.078413
e5945b5df85711e279d7eb8a13b43e9e	orionharthealth		Orion Hart Health	Uwchraddio'ch iechyd + Trawsnewid eich corff + Gwella'ch symudedd	Upgrade your health + Transform your physique + Enhance your mobility	🌼💪		orionharthealth@gmail.com	44	0	7422 937141	https://www.orionharthealth.co.uk	https://facebook.com/profile.php?id=100064048743288	https://instagram.com/orionharthealth				SY23	Aberystwyth	Ceredigion	Wales	SY23	UK	52.415303	-4.08292
ce9089d43b87bf756e78a32e0bb817c5	bethandaviesfitness		Bethan Davies Fitness	Hyfforddwr Personol a hyfforddwr iechyd a ffitrwydd Ar-lein.	Personal Trainer and Online health and fitness coach.	🌼💪🧘		support@bethandaviesfitness.com	44	0		https://bethandaviesfitness.com/	https://facebook.com/bethdfitness/	https://instagram.com/bethandavies_fitness/					Aberystwyth	Ceredigion	Wales	SY23	UK	52.415303	-4.08292
865e921d4e954092e2573a027a2f9fb7	ceredigion.ac.uk	Coleg Ceredigion	Ceredigion College	Coleg AB gyda champysau yn Aberystwyth ac Aberteifi.	FE college with campuses in Aber & Cardigan.	🎓		enquiries@ceredigion.ac.uk	44	0	1970 639700	https://ceredigion.ac.uk	https://facebook.com/colegceredigion						Llanbadarn Fawr, Aberystwyth	Ceredigion	Wales			52.410101	-4.0588179
c3dec682eabd07b63396972b061901c9	rbhfitness		Rachel Hubbard Fitness	Cyngor dibynadwy i roi hwb i'ch hyder ffitrwydd. Arbenigwr yn y Diwydiant Menopos a Pilates. Cymeradwywyd gan CIMSPA.	Reliable advice to boost your fitness confidence. Menopause & Pilates Industry Expert. CIMSPA endorsed.	🌼💪		rbhfitnesswales@gmail.com	44	0	7967 045322	https://www.rbhfitness.co.uk/	https://facebook.com/rbhfitness	https://instagram.com/rbhfitness	https://www.youtube.com/@rachelhubbard-rbhfitness5842				Aberystwyth	Ceredigion	Wales	SY23	UK	52.415303	-4.08292
1e845267dbd288468f064b92cff83c78	prettylittlethings.aberystwyth		Pretty Little Things	Gwneuthurwr gemwaith o ganolbarth Cymru. Fforiwr a thrôr gydol oes.	Jewellery maker based in Mid Wales. Explorer and lifelong beachcomber.	🛍💎		prettylittlethings.aberystwyth@gmail.com	44	0		https://www.prettylittlethings-aberystwyth.com		https://instagram.com/prettylittlethings.aberystwyth/					Aberystwyth	Ceredigion	Wales	SY23	UK	52.415303	-4.08292
2c0ba10c4de33333093be3383e7c32ba	silverfernglamping		Silver Fern Glamping	Cytiau Bugeiliaid Moethus arobryn yng Ngorllewin Cymru	Award winning Luxury Shepherds Huts in West Wales	🏞🏕			44	0	7392 075907	https://silverfernglamping.com/	https://facebook.com/silverfernglamping	https://instagram.com/silverfernglamping				Sunny Hill, LLanfarian	Aberystwyth	Ceredigion	Wales	SY23 4QG	UK	52.4138472	-4.0736454
c4a7540e88781c41249fc557a07f08f4	caffenero.com		Caffè Nero	Y Cwmni Coffi Eidalaidd	The Italian Coffee Company	💧☕			44	0		https://www.caffenero.com/	https://facebook.com/caffenero	https://instagram.com/caffenero/				25 Great Darkgate St	Aberystwyth	Ceredigion	Wales	SY23 1DE	UK	52.4146456	-4.0849364
0b2dc70f4d599096a311acea819ff50d	matalan.co.uk		Matalan	Teulu. Ffasiwn. Cartref. (A'r holl anhrefn rhwng x)	Family. Fashion. Home. (And all the chaos in between x)	🛍🏬			44	0	333 004 4444		https://facebook.com/shopmatalan				https://twitter.com/Matalan	Ystwyth Retail Park, 3 Park Ave	Aberystwyth	Ceredigion	Wales	SY23 1PG	UK	52.4123021	-4.0804431
c687d600e2b24719d44a323b2a62a4b4	cafeangola	Caffi Celf Angola	Angola Art Cafe	Caffi celf agos-atoch, adwerthu ac oriel yn canolbwyntio ar gelf ac artistiaid lleol.	Intimate art cafe, retail and gallery space focused on local art and artists.	💧☕🫖🖼		info@cafeangola.co.uk	44	0	7956 322005	https://cafeangola.co.uk	https://facebook.com/p/Angola-Art-Cafe-100095381149870/	https://instagram.com/cafe_angola/				9 Cambrian Pl	Aberystwyth	Ceredigion	Wales	SY23 1NT	UK	52.4145166	-4.0830723
428037cc4bb1020d12ca97fb9e4137c0	dawnswelshgifts		Dawn's Welsh Gifts	Cardiau, anrhegion a nwyddau cartref wedi'u crefftio â llaw, unigryw a phersonol.🎄 Cardiau Nadolig, anrhegion ac addurniadau ar gael 🎅🏻	Handcrafted, unique and personalised Welsh cards, gifts and home goods.🎄Christmas cards, gifts and decorations available 🎅🏻	🛍🎁󠁧🏴󠁧󠁢󠁷󠁬󠁳󠁿		dawnsemporium@gmail.com	44	0	7774 277013	https://www.dawnswelshgifts.co.uk/	https://facebook.com/profile.php?id=100093379312898	https://instagram.com/dawnswelshgifts/				7 Terrace Rd	Aberystwyth	Ceredigion	Wales	SY23 1NY	UK	52.4146359	-4.0819632
2c15cc8a9fe586c37c2a4023d8f2fb1c	rattraybutchers		Rattray Butchers	Cigyddion Manwerthu wedi'u lleoli yn Aberystwyth sy'n cyflenwi Cig ffres o'r ansawdd gorau o ffynonellau lleol	Retail Butchers located in Aberystwyth supplying locally sourced prime quality fresh Meat	🍅🥩		Info@rattraybutchers.co.uk	44	0	1970 615353	https://rattraybutchers.co.uk	https://facebook.com/RobRattrayButchersAber/					8 Chalybeate St	Aberystwyth	Ceredigion	Wales	SY23 1HS	UK	52.4147315	-4.0833621
4ff320dd341a6693d3de052afe5136f0	gwesty.uk		GwesTY Guest House	Darganfyddwch encil cynnes a deniadol lle mae cysur yn cwrdd â llonyddwch.	Discover a warm and inviting retreat where comfort meets tranquility.	🏢🛎			44	0	1970 629896	https://gwesty.uk/						South Road	Aberystwyth	Ceredigion	Wales	SY23 1JS	UK	52.4122701	-4.0886788
e5764bec82d8707ad757b830c73b63e3	fayscakeboutique		Fay's Cake Boutique	cacennau priodas ac achlysur cyfoes o safon uchel.	High quality contemporary style wedding & occasion cakes.	🍅🥖		fayscakeboutique@outlook.com	44	0	7495 012915	https://www.fayscakeboutique.co.uk/	https://facebook.com/fayscakeboutique	https://instagram.com/fayscakeboutique/				Aberystwyth Market Hall Upper, Great Darkgate St	Aberystwyth	Ceredigion	Wales	SY23 1DW	UK	52.4136681	-4.0866994
32361a7310ff327995120547f9aad31b	aberdining		Aber Dining	Bwyd blasus dilys Bangladeshaidd ac Indiaidd wedi'i leoli yn Aberystwyth 😊	Delicious authentic Bangladeshi & Indian food based in Aberystwyth 😊	🍅🍽🇧🇩🇮🇳		aberdining@gmail.com	44	0	1970 210289		https://facebook.com/profile.php?id=61561945293953					20 N Parade	Aberystwyth	Ceredigion	Wales	SY23 2NF	UK	52.4155377	-4.0826491
7e864e258a1e2f85deb2ea5a834e8fee	paprikarestaurantaberystwyth		Paprika	Bwyty Hwngari traddodiadol yn Aberystwyth. Coginio cartref dilys. Arbenigedd coginio.	Traditional Hungarian Restaurant in Aberystwyth. Authentic home made cuisine. Culinary speciality.	🍅🍽🇭🇺			44	0				https://instagram.com/paprikarestaurant.wales/				9 Terrace Road	Aberystwyth	Ceredigion	Wales	SY23 1NY	UK	52.4146771	-4.0819205
38a0acb5e9d53c9eb77f847a303dcbaf	molliessweetshop		Mollies Sweet Shop	Melysion, Candy, Siocled, Diodydd	Sweets, Candy, Chocolate, Drinks	🍅🛍🍭		molliessweetshop@outlook.com	44	0		https://molliessweetshop.com	https://facebook.com/molliessweetshop/	https://instagram.com/molliesaberystwyth/				32 Terrace Rd	Aberystwyth	Ceredigion	Wales	SY23 2AE	UK	52.4156307	-4.0831108
3f0b4fa681c402d4ef7249f2c53fa766	thecambrian		The Cambrian	Bar cyfeillgar a deniadol, gyda dewis o gwrw a seidr gwych, wedi'i addurno â dewis eang	Friendly and inviting bar, with a choice of great beers and ciders, decorated with a wide selections	🍅💧🍺☕️🍽🍖			44	0	1970 612446	https://www.thecambrian.co.uk/	https://facebook.com/profile.php?id=100063635346747	https://instagram.com/thecambrian_aberystwyth/				Alexandra Rd	Aberystwyth	Ceredigion	Wales	SY23 1LG	UK	52.413959	-4.0827059
6bda3b0cc958bcff54aa3a2d5bef5b64	nutrition.wales		Nutrition Wales	Cyfleuster cymdeithasol, cymunedol sy'n cefnogi ac yn annog arferion bwyta newydd a all newid iechyd a bywydau pobl.	A social, community based facility supporting and encouraging new eating habits that can change people's health and lives.	🌼👩‍⚕️		karen@nutrition.wales	44	0	7519 303707		https://facebook.com/nutrition.wales					3 Lovegrove Farm Stables, Capel Dewi	Aberystwyth	Ceredigion	Wales	SY23 3HR	UK	52.4197617	-4.0158914
4b305fcfb18efe474bd0c204a2d3058b	themeccaaberystwyth		The Mecca	Masnachwyr Te a Choffi	Tea and Coffee Merchants 	🍅🛍💧🫖☕			44	0	1970 612888		https://facebook.com/themecca.aberystwyth					25 Chalybeate Street	Aberystwyth	Ceredigion	Wales	SY23 !HX	UK	52.4140958	-4.0835487
0b20708ad38100bc1ecde45dc2999d47	hollandandbarrett		Holland & Barret	Manwerthwr iechyd a lles mwyaf y DU, gyda dros 150 mlynedd o brofiad	The UK’s largest health & wellness retailer, with over 150 years of experience	🍅🛒🛍🌼💊		customerservices@hollandandbarrett.com	44	0	330 058 2025	https://www.hollandandbarrett.com/	https://facebook.com/hollandandbarrett						Aberystwyth	Ceredigion	Wales	SY23	UK	52.415303	-4.08292
df99e7dec4da20bc998bd388f73b4046	theranaskitchen		The Rana's Kitchen	Byrgyrs | Cyw Iâr wedi'i Ffrio | Cebabs | Cyrri Bangladeshi	Burgers | Fried Chicken | Kebabs | Bangladeshi Curries	🍅🍽🍔🍛🇧🇩			44	0	1970 358394	https://theranaskitchen.com/	https://facebook.com/theranaskitchen/					11 Pier St	Aberystwyth	Ceredigion	Wales	SY23 2LJ	UK	52.4145347	-4.0860467
313f02a9bf9aaba5f9fd00a4e7bd1218	codicwmwl.com		CodiCwmwl Hypnotherapy Einir Trimble	Hypnotherapydd yn cefnogi merched gyda straen, gorbryder, gwella lles, rheoli pwysau	Hypnotherapist supporting women with stress, anxiety, improving wellbeing, weight management	🌼👩‍⚕️		info@codicwmwl.com	44	0	7889 218942	https://www.codicwmwl.com/	https://facebook.com/@hypnotherapyeinirtrimble						Aberystwyth	Ceredigion	Wales	SY23	UK	52.415303	-4.08292
c50a4851d495b0eb58e193ac52dd6de3	ystwythbooks	Llyfrau Ystwyth	Ystwyth Books	Siop lyfrau Newydd ac Ail-law yn Aberystwyth. Gelwir yn aml yn siop lyfrau orau Cymru. Siop lyfrau newydd ac ail-law yn Aberystwyth.	New and Secondhand bookshop in Aberystwyth. Frequently called the best bookshop in Wales. Siop lyfrau newydd ac ail-law yn Aberystwyth.	 🛍📚		ystwyth.books@btconnect.com	44	0	1970 639479	http://www.ystwythbooks.co.uk/	https://facebook.com/ystwythbooks					7 Princess Street	Aberystwyth	Ceredigion	Wales	SY23 1DX	UK	52.4136339	-4.0862815
b3adacfa4cc98dff2a13b4990e0c9456	theseasideharpist		The Seaside Harpist	Rydw i ar gael i’w llogi mewn gigs preifat mewn bwytai, caffis, priodasau, partïon gardd a llawer mwy. Rwyf hefyd yn mwynhau bysgio ar hyd arfordir Cymru.	I’m available for hire at private gigs at restaurants, cafes, weddings, garden parties and much more. I also enjoy busking along the welsh coast.	🎸			44	0			https://facebook.com/profile.php?id=61561631636654	https://instagram.com/the_seaside_harpist/					Aberystwyth	Ceredigion	Wales	SY23	UK	52.415303	-4.08292
63121312d268ee187ca2af641d3054ff	waterstonesaberystwyth		Waterstones Aberystwyth	Mae Waterstones Aberystwyth yn siop lyfrau sydd â’i chymuned, o drigolion ac ymwelwyr yn ganolog iddi!	Waterstones Aberystwyth is a bookshop that has it’s community, of residents and visitors alike at it’s heart!	🛍📚		aberystwyth@waterstones.com	44	0	1970 611222	https://www.waterstones.com/	https://facebook.com/waterstonesaber					27 Great Darkgate St	Aberystwyth	Ceredigion	Wales	SY23 1DE	UK	52.414609	-4.0850228
0a67a9f466f0fb9a44c49d7a8545799e			Custom Cymru	Brodwaith ac Argraffu | Gwisg Ysgol | Dillad tîm | Dillad gwaith | Clybiau	Embroidery & Print | School Uniforms | Teamwear | Workwear | Clubs				44	0									Aberystwyth	Ceredigion	Wales	SY23	UK	52.415303	-4.08292
889a378e352d4684543e3161a3726ff8			Queer Little Space CIC						44	0									Aberystwyth	Ceredigion	Wales	SY23	UK	52.415303	-4.08292
a9231a5ca9c08903c7055a1920a3abe5	flowersbyclaireaberystwyth		Flowers by Claire	Trefniadau pwrpasol a thuswau wedi'u gwneud yn ôl yr archeb. Casgliad o ganol tref Aberystwyth.	Bespoke arrangements and bouquets made to order. Collection from Aberystwyth Town centre.	🛍🌷		Claireadelroberts@gmail.com	44	0	7792 316051		https://facebook.com/p/Flowers-by-Claire-100036847705925/						Aberystwyth	Ceredigion	Wales	SY23	UK	52.415303	-4.08292
cceeae28c0d90370872744f70ce398c5			Barber Lu	Gwallt Personol a Grooming	Custom Hair & Grooming				44	0									Aberystwyth	Ceredigion	Wales	SY23	UK	52.415303	-4.08292
e78eda2a166008e30bfbec93e8202a76			Yum Yum Tree						44	0									Aberystwyth	Ceredigion	Wales	SY23	UK	52.415303	-4.08292
6e06d4f209c71d084925629b16ac0c48	rachelsorganic		Rachel's Organic Dairy	Iogwrt organig blasus wedi'i wneud gyda'r gorau sydd gan natur i'w gynnig.	Great tasting organic yogurts made with the best nature has to offer.	🍅🐮						https://www.rachelsorganic.co.uk/	https://www.facebook.com/rachelsorganic		https://www.youtube.com/user/RachelsOrganicTV		https://twitter.com/rachelsorganic								
869559a725f82c0224cba9db6f84a642			Millwards' 	Celf, Crefftau a Siop Modelau	Art, Crafts & Model Shop				44	0									Aberystwyth	Ceredigion	Wales	SY23	UK	52.415303	-4.08292
a0d90c093cf486b4daa0e8387d61314e			TUI	Asiantaeth deithio	Travel Agency	🏢			44	0									Aberystwyth	Ceredigion	Wales	SY23	UK	52.415303	-4.08292
0fba34c5f544b9e81a85cadf0db718ea	ardalaberystwythrotary		Ardal Aberystwyth Rotary Club	Clwb Rotari ar ei newydd wedd yw Ardal Aberystwyth sy’n rhoi’r cyfle i’w aelodau helpu cymunedau lleol a ledled Cymru ac i fwynhau cymdeithas a hwyl gyda phobl o’r un anian mewn lleoliad anffurfiol.	Ardal Aberystwyth is a new style Rotary Club that gives its members the opportunity to help communities locally and throughout Wales and to enjoy fellowship and fun with likeminded people in an informal setting.	👥🏢						https://ardalaberystwythrotary.cymru/	https://facebook.com/ArdalAberystwythRotary	https://instagram.com/ardalaberystwythrotary/					Aberystwyth	Ceredigion	Wales	SY23	UK	52.415303	-4.08292
8c284459572021370fbf4b42674924db	freelanceaberystwythllawrydd		Freelance Aberystwyth Llawrydd	Mae Aberystwyth Llawrydd yn rwydwaith o weithwyr proffesiynol hunan-gyflogedig o fewn ac o gwmpas tref Aberystwyth. Dewch i ymuno â'n cymuned, cwrdd â phobl, a tyfu eich busnes.	Freelance Aberystwyth is a network of self-employed professionals based in and around the town. Join the community, meet people, grow your business.	👥🏢							https://facebook.com/groups/216991375699528/						Aberystwyth	Ceredigion	Wales	SY23	UK	52.415303	-4.08292
396b68ca9a045769147e121bd7f43911	aberbusinessclub		Aberystwyth Business Club	Hyrwyddo a chefnogi busnesau lleol Aberystwyth.	Promoting and supporting businesses in and around Aberystwyth	👥🏢		info@aberystwythbusinessclub.com				https://aberystwythbusinessclub.com/	https://facebook.com/AberBusinessClub	https://instagram.com/aberbusinessclub											
30bc9ef2f6e927d4f01ddb5079ec00e4	aberystwythparkrun		Aberystwyth parkrun	Digwyddiad cymunedol wythnosol wythnosol am ddim, hwyliog a chyfeillgar. Cerdded, loncian, rhedeg, gwirfoddoli neu sbectol - chi sydd i benderfynu!	A free, fun, and friendly weekly 5k community event. Walk, jog, run, volunteer or spectate – it's up to you!	👥🏞🏃		aberystwyth@parkrun.com				https://www.parkrun.org.uk/aberystwyth/						Plascrug Park, Plascrug Avenue, 	Aberystwyth	Ceredigion	Wales	SY23 1HL	UK	52.4101468	-4.0747474
88f94684ebc11b90875f5161896085f1	caryssangolino		Carys's Angolino 	Bwyd Stryd Sicilian yn Aberystwyth Wedi'i Wneud i Chi gyda Chynhwysion Ffres, Ansawdd a Lleol.	Sicilian Street Food in Aberystwyth Made for You with Fresh, Quality and Local ingredients.	💧☕🍅🥪🇮🇹		volpecarys@gmail.com	44	0	7453 296319		https://facebook.com/caryssangolino/					13 Cambrian Place	Aberystwyth	Ceredigion	Wales	SY23 1NT	UK	52.4145283	-4.0829097
24557cfc21af585f894496469467cd97			Morgan's 	Cigydd	Butcher	🍅🥩			44	0									Aberystwyth	Ceredigion	Wales	SY23	UK	52.415303	-4.08292
de7ea915a5785eff2d6dad1c3e4dfda6			Ruth's Kitchen	Cerfdy	Carvery	🍅🍽🍖			44	0									Aberystwyth	Ceredigion	Wales	SY23	UK	52.415303	-4.08292
f97f362eb5861649508d507ffa6dc091		Marchnand Ffermwyr	Farmer's Market						44	0									Aberystwyth	Ceredigion	Wales	SY23	UK	52.415303	-4.08292
fdb9dd69a2cc37c3ef873eb88e9d8be7	ultimatexscapeaberystwyth		Ultimate Xscape Aberystwyth	Ymunwch â ni am 60 munud o hwyl wefreiddiol yn y Escape Room.	Join us for 60 minutes of thrilling fun at the Escape Room.	🏫🏞🎈		info@silvermountainexperience.co.uk	44	0	1970 890620	http://www.ultimatexscape.co.uk/	https://facebook.com/ultimatexscapeaber/					Ponterwyd	Aberystwyth	Ceredigion	Wales	SY23 3AB	UK	52.4129511	-3.8411629
76d9a32adc695455bffec54e9deb33d8	redkitecafe		Red Kite Cafe and Grill 	Amrywiaeth flasus o opsiynau brecwast a chinio, yn ogystal â dewis eang o ddiodydd poeth ac oer, ac amrywiaeth o ddanteithion melys.	A delicious range of breakfast and lunch options, as well as a wide selection of hot and cold drinks, and a range of sweet treats.	💧☕🫖🍅🍽🍭		info@silvermountainexperience.co.uk	44	0	1970 890340	https://redkitecafe.co.uk	https://facebook.com/redkitecafe					Ponterwyd	Aberystwyth	Ceredigion	Wales	SY23 3AB		52.4129511	-3.8411629
f5f5ee8a44dac3caa553a34660a83c7c	thesilvermountainexperience		The Silver Mountain Experience 	Profiadau actor byw a hanes hynod ddiddorol, yn seiliedig mewn Mwynglawdd Arian-Plwm unigryw ym Mynyddoedd Cambria	Live actor experiences and fascinating history, based at a unique Silver-Lead Mine in the Cambrian Mountains			info@silvermountainexperience.co.uk	44	0	1970 890620	https://silvermountainexperience.co.ukk	https://facebook.com/SilverMountainExperience					Ponterwyd	Aberystwyth	Ceredigion	Wales	SY23 3AB		52.4129511	-3.8411629
e894a6a5c0711fbd991a74eaaaf118a4			Pets at Home						44	0									Aberystwyth	Ceredigion	Wales	SY23	UK	52.415303	-4.08292
40f85d098b2d036c53c9b5735ea0cccf			Home Bargains						44	0									Aberystwyth	Ceredigion	Wales	SY23	UK	52.415303	-4.08292
98dc0ebd5efc2408428f90f854caa69c			Iceland						44	0									Aberystwyth	Ceredigion	Wales	SY23	UK	52.415303	-4.08292
e829b099f1a6ecc0ae0783f31563ea5c	llaethjenkinsmilk	Jenkins Llaeth Teulu	Jenkins Family Milk	Peiriannau gwerthu llaeth organig lleol ac ysgytlaeth ffres		🍅		hello@llaethjenkinsmilk.co.uk	44	0	7813 827712	https://llaethjenkinsmilk.co.uk/	https://facebook.com/cwtshllaeth/						Aberystwyth	Ceredigion	Wales	SY23	UK	52.415303	-4.08292
696d2eca08c588529678ae0b65509bb1	wyauedkinseggs		Wyau Edkins Eggs	Peiriant wyau yn gwerthu wyau maes ffres	Egg vending machine selling fresh local free range eggs	🍅🛒🥚		coedfarm686@gmail.com	44	0	7813 315670		https://facebook.com/p/Wyau-Edkins-Eggs-100093685864433/	https://instagram.com/wyauedkinseggs/				Peiriant/Vending, Park Avenue	Aberystwyth	Ceredigion	Wales	SY23 1LF	UK	52.4131434	-4.0824289
1ebfce2559a850065def0f918d7b2dfd			McDonald's						44	0									Aberystwyth	Ceredigion	Wales	SY23	UK	52.415303	-4.08292
0622136c1ffa5b35ee915fbc460ddb40			KFC		Kentucky Fried Chicken				44	0									Aberystwyth	Ceredigion	Wales	SY23	UK	52.415303	-4.08292
202922f75544264da94bd401e50c6533	littledevilscafe		Little Devil's Cafe	☕️ Caffi/Siop Coffi 📍 Aberystwyth 🍴 Bwyd Cartref o Ffynonellau Lleol 🧁 Cacennau Delicious 🌱 Opsiynau Fegan a Llysieuol 🐶 Cyfeillgar i Gŵn 🍽️ Tecawe Ar Gael	☕️ Cafe/Coffee Shop 📍 Aberystwyth 🍴 Homemade Locally Sourced Food 🧁 Delicious Cakes 🌱 Vegan and Vegetarian Options 🐶 Dog Friendly 🍽️ Takeaway Available	🍅☕🍽		littledevilscafe@hotmail.com	44	0	1970 611757		https://facebook.com/Littledevilscafe	https://instagram.com/littledevilscafe/				20 Terrace Road	Aberystwyth	Ceredigion	Wales	SY23 1NP	UK	52.4150553	-4.0826792
cd7f7ddd71e9bd624700fea37ec1d1b5			Venus Barber	Torri gwallt + patrwm + eillio tywel poeth	Haircut + Pattern + Hot Towel Shave	🌼💈			44	0									Aberystwyth	Ceredigion	Wales	SY23	UK	52.415303	-4.08292
63dc35ce9bd14e6c7528785199db6e43			Boots Optician	Presgripsiynau Llygaid, Sbectol, Fframiau	Eyewear Prescriptions, Glasses, Frames	🌼👁️			44	0									Aberystwyth	Ceredigion	Wales	SY23	UK	52.415303	-4.08292
778d29fcf8770e8747e085290b3a2c4a	kingarthurslabyrinth		King Arthur's Labyrinth	✨ rhaeadr hudolus i mewn i antur wedi'i llenwi â draig🐉deep o dan fynyddoedd yr eira deheuol	✨A magical waterfall into a dragon filled adventure🐉deep beneath the mountains of Southern Snowdonia				44	0	1654 761584	https://www.kingarthurslabyrinth.co.uk/	https://www.facebook.com/KingArthursLabyrinth	https://www.instagram.com/kingarthurslabyrinth/	https://www.youtube.com/watch?v=hHlunTcaAfU		https://twitter.com/KingArthurWales								
9553e7af6240bd71eef3a9b20b1f9ce8			Poundland	Siop fwyd	Grocery Store	🍅🛒			44	0									Aberystwyth	Ceredigion	Wales	SY23	UK	52.415303	-4.08292
96eea0183101f610d79c61c36f089393			Pep & Co	Ffasiwn i Ferched, Dynion, Plant	Fashion For Women, Men, Kids	🛍👚			44	0									Aberystwyth	Ceredigion	Wales	SY23	UK	52.415303	-4.08292
7b60ad238d4ece746322ad5ff07d2fab	theexpresscafeaberystwyth		The Express Cafe	Mae'r Express Cafe yn fusnes teuluol sydd wedi'i leoli'n uniongyrchol o'r orsaf reilffordd. Mae gan deulu Foligno dreftadaeth gaffi hir yn dal i fynd heddiw.	The Express Cafe is a family run business situated directly across from the railway station. The Foligno family has a long cafe heritage still going today.	💧☕🍅🥪			44	0	1970 617707		https://facebook.com/profile.php?id=100063609548190					Alexandra Road	Aberystwyth	Ceredigion	Wales	SY23 5AH	UK	52.4144981	-4.0814307
0d0075d937cad616631e6db652c6080c			Card Factory	Cardiau ac Anrhegion	Cards & Gifts	🛍💌🎁🏳‍🌈			44	0									Aberystwyth	Ceredigion	Wales	SY23	UK	52.415303	-4.08292
f918ab4eef33953fc66061eeecaf28e3			Savers	Marchnad	Market	🍅🛒			44	0									Aberystwyth	Ceredigion	Wales	SY23	UK	52.415303	-4.08292
e56013155c10248c0a5ff1a4b98fdb61			Specsavers	Optegwyr a Gwydrau a Fframiau	Opticians & Glasses & Frames	🛍👁️			44	0									Aberystwyth	Ceredigion	Wales	SY23	UK	52.415303	-4.08292
f94d1249c6198dafcd02324decabf5d8	aberframing		Aber Framing	Fframio Lluniau Pwrpasol	Bespoke Picture Framing	🛍🖼			44	0	7812 890028	https://www.aberframing.co.uk/	https://facebook.com/aberframing.co.uk	https://instagram.com/aber_framing				Unit 3b, Min Y Llyn, Glan Yr Afon Industrial Estate	Aberystwyth	Ceredigion	Wales	SY23 3NG	UK	52.8962101	-4.5040799
76eeeb5a499dbe35fafc82fe92a3b521	aberystwythbeerpongsociety		Aberystwyth Beer Pong Society	Helo, ni yw ABPS. Rydym yn gymdeithas ym Mhrifysgol Aber ac yn cael digwyddiadau cymdeithasol bob dydd Mercher.	Hello, we are ABPS. We are society in Aber Uni and have socials every Wednesday.	👥							https://facebook.com/AberBeerPongSociety	https://instagram.com/abps_15/		https://www.tiktok.com/@aberbeerpong									
83732fc76e92f6a7bd4a3f4c5bd0ae62			Albatross		Models and Hobbies	🛍🧶🧸			44	0	1970 617836							29 Pier St	Aberystwyth	Ceredigion	Wales	SY23	UK	52.4152311	-4.0867001
156abbe91e025f170e144e14f024959a			The Osteopaths						44	0	1970 636755							32 North Parade	Aberystwyth	Ceredigion	Wales	SY23	UK	52.4157319	-4.082153
d69cacf4c9f65d9f5795dc9629962ecf			Vaughans		The Electrical People																				
43e02185c16d1d1e1569f9561e502b6c	fusionkingrestaurant		Fusion King	Bwyty a siop tecawê yng nghanol tref Aberystwyth. Rydym yn cynnig amrywiaeth o flasau unigryw a blasus sy'n tarddu o gwmpas y Byd.	Restaurant and takeaway located in the centre of Aberystwyth town. We offer a variety of unique and delicious flavours that originate around the World.	🍅🍽												31 Eastgate	Aberystwyth	Ceredigion	Wales	SY23 2AR	UK	52.4149659	-4.0860227
1b15c43d11624d501c19e95fef643763			Light of Asia	Bwyty Tandoori	Tandoori Restaurant	🍅🍽🇮🇳																			
f8f5e6bd46dfe6c095a04ff510ad2b7a			Godfather	Byrgyrs Smash • Pizza • Cyw Iâr Peri • Cebab Donner Tro-ffrio	Smash Burgers • Pizza • Peri Peri Chicken • Stir Fried Donner Kebab	🍅🍽🍔🍕																			
9b0c934ade6aa094c3dd2213322d18bf	welshcomputers		Welsh Computers	Mae cyfrifiaduron Cymreig yn prynu, yn trwsio ac yn gwerthu cyfrifiaduron, tabledi a ffonau! Adeiladu, Uwchraddio ac ati Custom.	Welsh Computers buys, fixes and sells computers, tablets and phones! Custom builds, upgrades etc.	🛍💻		hello@welshcomputers.com	44	0	800 994 9441	http://welshcomputers.com/	https://facebook.com/welshcomputers	https://instagram.com/welshcomputers/			https://twitter.com/welsh_computers								
a828adbf75db6c111e0d7e63855984d7			Jono's Barbershop			🌼💈			44	0									Aberystwyth	Ceredigion	Wales	SY23	UK	52.415303	-4.08292
aa09dfe66e56e820e9965e9bba096857			Claire Lloyd	Stiwdio Gwallt	Hair Studio	🌼💇			44	0									Aberystwyth	Ceredigion	Wales	SY23	UK	52.415303	-4.08292
00fa553f6a5e5cdb7284bd3a6b25f26f	annabelthegoldsmith		Annabel The Goldsmith	Gemwaith gwerthfawr wedi'u gwneud â llaw yn ddilys, wedi'u gwneud mewn arian, aur, eitemau diangen ac eitemau wedi'u hailgylchu.	Authenticly handmade precious jewellery, made in silver, gold, unwanted items and recycled items.			info@annabelthegoldsmith.co.uk	44	0		https://www.annabelthegoldsmith.co.uk/	https://facebook.com/AnnabelTheGoldsmith	https://instagram.com/annabelthegoldsmith/				Old Post Office, 6 Great Darkgate Street	Aberystwyth	Ceredigion	Wales	SY23 1DE	UK	52.4148392	-4.0838644
703e121b747d2e622a8ce933808560cc			Calm Krafts						44	0									Aberystwyth	Ceredigion	Wales	SY23	UK	52.415303	-4.08292
9b92a11904607a0234dfcd14a7595e67			Cardigan Bay Designs						44	0									Aberystwyth	Ceredigion	Wales	SY23	UK	52.415303	-4.08292
e56fe2e6b3bc0908369b5dcc1f25fa96	cactws		Cactws	🌵 Siop ddillad 👕 Ffasiwn 👟 Ffordd o Fyw a Nwyddau Cartref 🟡 Pwynt Mynediad UPS 📦 Dosbarthu am ddim	🌵 Clothing store 👕 Fashion 👟 Lifestyle & Homeware 🟡 UPS Access Point 📦 Free delivery	🛍👚						https://www.cactws.co.uk/	https://www.facebook.com/cactwsaber	https://www.instagram.com/cactws				23-25 Pier Street	Aberystwyth	Ceredigion	Wales	SY23 2LN	UK	52.4150161	-4.0868948
6b4bd2aa7e4eaa38a5c627fcfeb93ca3			Ibohero						44	0									Aberystwyth	Ceredigion	Wales	SY23	UK	52.415303	-4.08292
3c482565487099d76034b740b0084197			Lovingly Bound						44	0									Aberystwyth	Ceredigion	Wales	SY23	UK	52.415303	-4.08292
f0d55ff7f220b5810e345d2734fbc3a1	davidgilbertjewellry		David Gilbert Jewellery 	Rydym yn dylunio • Rydyn ni'n gwneud 	We Design • We Make	🛍💎		david@davidgilbertjewellery.com	44	0	1970 627754	https://www.davidgilbertjewellery.com/	https://facebook.com/DGJAberystwyth					9 Market Hall, Upper Great Darkgate Street	Aberystwyth	Ceredigion	Wales	SY23 1DW	UK	52.4136681	-4.0866994
18823d871022745d68432a0dab5dfa16	fantabulousfragrances		Fantabulous Fragrances	Cwyr persawrus iawn yn toddi, ffresni aer car ymhlith pethau eraill!	Highly scented wax melts, car air freshies amongst other things!	🛍		Info@fantabulous-fragrances.co.uk	44	0	7376 227425	https://fantabulous-fragrances.co.uk/	https://facebook.com/profile.php?id=61560304826558					2 Ger y Ddol, Penparcau	Aberystwyth	Ceredigion	Wales	SY23 1RH	UK	52.4412088	-4.0314521
bea952b1d5b17928e555a87cbaa1c172			Tomos Watkin Artist						44	0									Aberystwyth	Ceredigion	Wales	SY23	UK	52.415303	-4.08292
fa77e852239efbd74fa217f2231f299c			Superdrug						44	0									Aberystwyth	Ceredigion	Wales	SY23	UK	52.415303	-4.08292
56781726235c9ed8b558c51db1cb93f1	craftycambrian		The Crafty Cambrian	Teimlai Ffantastig gan Scapes Tir a Môr Cymru, Myth & Nature. Ar -lein, stondin, gweithdai.	Fantastic felt inspired by the land & sea scapes of Wales, myth & nature. Online, stall, workshops.	🛍🧶		h3dgewitch1966@gmail.com					https://www.facebook.com/profile.php?id=100086113251613	https://www.instagram.com/craftycambrian/				Old Post Office, 6 Great Darkgate Street	Aberystwyth	Ceredigion	Wales	SY23 1DE	UK	52.4148392	-4.0838644
dc25da74dc16d142660e52553cd36ab8			New Look			🛍👚			44	0									Aberystwyth	Ceredigion	Wales	SY23	UK	52.415303	-4.08292
dd19a3343bb8563fee55357552d26fcc			The Vale of Rheidol Pub			💧🍺🍅🍽			44	0									Aberystwyth	Ceredigion	Wales	SY23	UK	52.415303	-4.08292
b0472fa64bce902b1dfb48d2bcf87794	dylansdencrystalshop		Dylan's Den	Siop grisial gyda siopau yn Aberystwyth, Henffordd, a Threfynwy	Crystal shop with stores in Aberystwyth, Hereford, and Monmouth	🛍🎁		dylansdenretail@gmail.com	44	0	1970 617794	https://dylansden.co.uk	https://facebook.com/DylansDenCrystalShop	https://instagram.com/dylansdencrystalshop/					Aberystwyth	Ceredigion	Wales	SY23	UK	52.415303	-4.08292
4bc8cc9144360af808aa3fc5dd5b4390	therudemonkey		The Rude Monkey Company 	Ffynci, beiddgar a thros ben llestri! Nid ydym yn gwneud diflas, ni yw'r Mwncïod Coolest yn y Jyngl!	Funky, bold and over the top! We don't do boring, we are the Coolest Monkeys in the Jungle!	🛍👚		hello@therudemonkey.co.uk	44	0	7956 332005		https://facebook.com/therudemonkey.uk	https://instagram.com/therudemonkey				12 Great Darkgate	Aberystwyth	Ceredigion	Wales	SY23	UK	52.4147612	-4.0840924
4f78c47fb9707c45b7651eadf0c3bb5b			Clare Wools			🛍👚🧶			44	0		https://clarewoolsco.uk							Aberystwyth	Ceredigion	Wales	SY23	UK	52.415303	-4.08292
32a7488eba9eaf2135c7f275ec18dcf8			White Stuff			🛍👚			44	0									Aberystwyth	Ceredigion	Wales	SY23	UK	52.415303	-4.08292
0667e146e7543da79839e603fc411d72			Gallery Gwyn						44	0									Aberystwyth	Ceredigion	Wales	SY23	UK	52.415303	-4.08292
144fa3fa25479634bac9fc9f34f418b5	moonlightapothecaryaberystwyth		Moonlight Apothecary	Canolfan lles a chymuned yn Aberystwyth. Canolbwyntio ar gynaliadwyedd a masnach deg.	A centre for wellness and community in Aberystwyth. Sustainability and fair-trade focused.	🛍🌼		MoonlightApothecary@digital-wizard.com	44	0			https://facebook.com/profile.php?id=61560699874133	https://instagram.com/moonlightapothecaryofficial				15 Great Darkgate St	Aberystwyth	Ceredigion	Wales	SY23 1DE	UK	52.41484	-4.0844821
329369e7e9b56f3ca44582f93eaaf981		Balchder Yn Aberystwyth	Pride In Aberystwyth						44	0									Aberystwyth	Ceredigion	Wales	SY23	UK	52.415303	-4.08292
7e90ca9a3fb4ed305866b3e32853cbcd			Layla Isis Mangan	Tu mewn	Interiors				44	0									Aberystwyth	Ceredigion	Wales	SY23	UK	52.415303	-4.08292
723c0af6215a4231f5a9172bed904643	yurtopiawales		Yurtopia Wales	Encilfa coetir. Ymlacio, adfer, archwilio.	A woodland retreat. Relax, restore, explore.	🏞🏕🛎		fran@yurtopiawales.co.uk	44	0	7715 925683	https://yurtopiawales.co.uk	https://facebook.com/yurtopia.wales	https://instagram.com/yurtopia.wales/				Ystumtuen 	Aberystwyth	Ceredigion	Wales	SY23 3AE	UK	52.3933884	-3.8556471
113c6656e860b5097641a7dc26c2cbfc		Helpu Cymru							44	0									Aberystwyth	Ceredigion	Wales	SY23	UK	52.415303	-4.08292
43ca4b06bf2dbdb84b825e6e3524276d			Centre For Welsh Politics and Society						44	0									Aberystwyth	Ceredigion	Wales	SY23	UK	52.415303	-4.08292
3757846aa0e6a9dff4e8418debb48534			Mouth of the Ystwyth Newspaper						44	0									Aberystwyth	Ceredigion	Wales	SY23	UK	52.415303	-4.08292
9cfb4130ab8f3fefa3d652a549a10eef		Aelwyd Trefechan							44	0									Aberystwyth	Ceredigion	Wales	SY23	UK	52.415303	-4.08292
c327c96fc13cb6251c3fbd93d74e773b	aberystwythcameraclub	Clwb Camera Aberystwyth	Camera Club Aberystwyth	I unrhyw un sydd â diddordeb cyffredin mewn tynnu a gwneud delweddau.	For anyone with a common interest in taking and making images.	👥						https://aberystwythcameraclub.org.uk/	https://facebook.com/groups/2059119337563273/						Aberystwyth	Ceredigion	Wales	SY23	UK	52.415303	-4.08292
6cd12c04103891ffbc61cb45a9385358	abercatering		Aber Catering	Bocsys Brecwast, Byrddau Pori, Te Prynhawn, Bwffe, Cacennau, Digwyddiadau Corfforaethol, Priodasau a mwy. Yn darparu ar gyfer eich holl anghenion.	Breakfast Boxes, Graze Boards, Afternoon Tea, Buffets, Cakes, Corporate Events, Weddings & more. Catering for all your needs.	🍅🍽		holmesm5@sky.com	44	0	7463 824623		https://facebook.com/AberCatering	https://www.instagram.com/abercatering/					Aberystwyth	Ceredigion	Wales	SY23	UK	52.415303	-4.08292
2e6cbc691bdd31732fdd3578d0af49e6			Boba Dragon box						44	0									Aberystwyth	Ceredigion	Wales	SY23	UK	52.415303	-4.08292
46029d44b2f0ddd1c6d1b9e93209fb55			Monika Pello Photos						44	0									Aberystwyth	Ceredigion	Wales	SY23	UK	52.415303	-4.08292
d548a2bbc17adc056e746a77704309db	nuteats		Neats 	Rydym yn darparu ar gyfer bwydgarwyr gyda phob angen, rydym yma ar gyfer bingers yn ogystal â phobl sy'n benodol iawn ac yn gyfyngedig! gan ein bod ni'n gwybod sut mae'n teimlo pan fyddwch chi angen byrbryd sy'n ffitio a'r un sy'n llenwi.	We cater to foodies with all needs, we are here for bingers as well as people that are very specific and limited! as we know how it feels when you need a snack that fits and the one that fills.	🍅🍽🍔🍕🐟			44	0	7880 978088		https://facebook.com/nuteats					65 Marine Terrace	Aberystwyth	Ceredigion	Wales	SY23 2BX	UK	52.4187966	-4.0839369
ea43077578c8bd9ceb7011ee70ee3c4b			Sheboss Club Aber						44	0									Aberystwyth	Ceredigion	Wales	SY23	UK	52.415303	-4.08292
666fcff4a57c8c1fdeab3c34524bfeb7			The Social Space Aber						44	0									Aberystwyth	Ceredigion	Wales	SY23	UK	52.415303	-4.08292
56a6edc7d3589be8d20879957b81c38d			Aberration Cymru						44	0									Aberystwyth	Ceredigion	Wales	SY23	UK	52.415303	-4.08292
6bf76f2387a6136a77f5e9e9659541be	woodlandscafeandtearoomsdevilsbridge		The Woodlands Cafe & Tea Rooms (Devils Bridge)	Caffi ac Ystafelloedd Te • Siop Anrhegion • Bwydydd • Prydau parod	Cafe and Tea Rooms • Gift shop • Groceries • Take-Away	💧🫖☕🛒🛍🎁			44	0	1970 890423		https://facebook.com/woodlandstearoomsdevilsbridge	https://instagram.com/woodlands_cafe_tearooms/				A4120 Devil's Bridge	Aberystwyth	Ceredigion	Wales	SY23 3JW	UK	52.3812139	-3.8454501
c04c74d282c6ef9789546f4f57a35635			Aber Crafts Society						44	0									Aberystwyth	Ceredigion	Wales	SY23	UK	52.415303	-4.08292
6fcd1c3a1860e4a0e4e582669da7b812			AberFoodSurplus						44	0									Aberystwyth	Ceredigion	Wales	SY23	UK	52.415303	-4.08292
61e70aac013968d00477d764c7fbf1bb	ystradfflurstrataflorida		Strata Florida Trust	Mae'r Ymddiriedolaeth yn adfer Fferm Mynachlog Fawr i greu Canolfan Ystrad Fflur; lle a fydd yn dathlu hanes, diwylliant a thirwedd Cymru.	The Trust is restoring the Mynachlog Fawr Farm to create The Strata Florida Centre; a place that will celebrate Welsh history, culture and landscape.			info@strataflorida.org.uk	44	0	1974 831760	https://www.strataflorida.org.uk	https://facebook.com/YstradFflur	https://instagram.com/ystradfflurstrataflorida/	https://www.youtube.com/@stratafloridatrust4138		https://twitter.com/YstradFflur	Abbey Rd, Ystrad Fflur	Ystrad Meurig	Ceredigion	Wales	SY25 6ES	UK	52.2759341	-3.8446453
b8ab2f8b5145d5ac978be1a7591257e5			Vocalize Studio	Hyfforddi a Mentora Lleisiol	Vocal Coaching & Mentoring				44	0		https://vocalizestudio.uk							Aberystwyth	Ceredigion	Wales	SY23	UK	52.415303	-4.08292
b8e2c50d93409d8146ac5b4b953e1e24	menteraberystwyth		Menter Aberystwyth	Partneriaeth adfywio	 Regeneration partnership			info@menter-aberystwyth.org.uk	44	0		https://menter-aberystwyth.org.uk	https://facebook.com/menteraberystwyth/	https://instagram.com/menter_aberystwyth/					Aberystwyth	Ceredigion	Wales	SY23	UK	52.415303	-4.08292
6ee2db88c95c1babb178ae8e28d69463			Downes	Gwasanaethau Milfeddygol | Ceffylau | Fferm | Anifeiliaid Anwes | Milfeddygon	Veterinary Services | Equine | Farm | Pet | Milfeddygon				44	0	1970 624173	https://downsevet.co.uk							Aberystwyth	Ceredigion	Wales	SY23	UK	52.415303	-4.08292
99773d5c937c7f90929db6b82479704f			My Dentist	Helpu'r genedl i wenu	Helping the nation smile				44	0	1870 623369	https://www.mydentist.co.uk							Aberystwyth	Ceredigion	Wales	SY23	UK	52.415303	-4.08292
77e39faac095249c2405e3c250edcdd4			Clinig Corff Ystwyth	Diagnosis arbenigol, rheoli a thrin poen yn y cymalau, poen nerfau, poen yn y cyhyrau, poen disg	Expert diagnosis, management, and treatment of joint pain, nerve pain, muscle pain, disc pain				44	0	1970 61190	https://ccy.org.uk							Aberystwyth	Ceredigion	Wales	SY23	UK	52.415303	-4.08292
ca28a8a38a9afbdacf89b3108ee15285			Porto						44	0									Aberystwyth	Ceredigion	Wales	SY23	UK	52.415303	-4.08292
3c5f8b22845e327fec5dc1f852078ee0	arabicflavouraberystwyth		Arabic Flavour	Arabic Flavor yw’r bwyty Arabeg/Groeg cyntaf i’w redeg gan y teulu yn Aberystwyth.	Arabic Flavour is the first Arabic/Greek family run restaurant in Aberystwyth.	🍅🍽🇦🇪🇬🇷		Arabicflavour@icloud.com	44	0	1970 228078	https://arabic-flavour.square.site	https://facebook.com/Arabicflavour.uk	https://instagram.com/arabic.flavour/				4 Northgate Street	Aberystwyth	Ceredigion	Wales	SY23 2JS	UK	52.4160352	-4.0797245
75ff0828dd572602ae406bc65567f80f			Knockout Furniture						44	0									Aberystwyth	Ceredigion	Wales	SY23	UK	52.415303	-4.08292
a0aef28390b54b390972333cef7e92f2			Charlie's						44	0									Aberystwyth	Ceredigion	Wales	SY23	UK	52.415303	-4.08292
ce3528a5d877ed5784724f484ab6bbff	bulgariankitchenaberystwyth		Bulgarian Kitchen	Mae Bulgarian Kitchen yn fwyty teuluol sy'n gweini bwyd ffres a chartref, pwdinau a chacennau, diodydd poeth ac oer, a phrydau byrbryd amrywiol. Rydym yn cynnig gwasanaeth bwyta i mewn a tecawê yn ogystal â danfoniadau.	Bulgarian Kitchen is a family-owned restaurant serving fresh and homemade food, desserts and cakes, hot and cold drinks, and various snack meals. We offer eat-in and takeaway service as well as deliveries.	🍅🍽🇧🇬		bulgariankitchen@gmail.com	44	0	7443 888083		https://facebook.com/BulgarianKitchen1	https://instagram.com/bulgarian.kitchen					Aberystwyth	Ceredigion	Wales	SY23	UK	52.415303	-4.08292
3ed13da798cfae09cf9d23362008b51d			Sioned Rees Hair Salon 						44	0									Aberystwyth	Ceredigion	Wales	SY23	UK	52.415303	-4.08292
c679c6746bc7da02d4d0a339c0593e7b			Sidni Leigh Makeup Artist						44	0									Aberystwyth	Ceredigion	Wales	SY23	UK	52.415303	-4.08292
be4a46ffc464f59452efd91896b1971f	anitawoodsart		Anita Woods Art	Artist Gain	Fine Artist	🛍🖼🧶💌		anitawoodsart@gmail.com	44	0	7891 919444	https://www.anitawoods.net													
49fa46cc9e516b698fe3594bf19e1d3a			Hair & Make Up by JJ						44	0									Aberystwyth	Ceredigion	Wales	SY23	UK	52.415303	-4.08292
77dd6ab35b8b6dcfa1796fca3f5f3e90			The Tan Shop						44	0									Aberystwyth	Ceredigion	Wales	SY23	UK	52.415303	-4.08292
7686c4ecc1d415bda29d5695030a964d	rastattooist		Ras Tattooist		Daryl Jemmott 			rastattooist13@gmail.com	44	0			https://facebook.com/rastattooist0					Baker Street Tattoo Studio, 4 Baker St	Aberystwyth	Ceredigion	Wales	SY23 2BJ	UK	52.4154093	-4.0842558
5afa9a14fa1b31af8b765db74d8cd63a			Lioness & Ink						44	0									Aberystwyth	Ceredigion	Wales	SY23	UK	52.415303	-4.08292
ba869dbef6ae0d927b0ca577ae84bef8	tripletwotattoo		Triple Two Tattoo	Parlwr Tatŵ Traddodiadol	A Traditional Tattoo Parlour			Triple2tattoo@gmail.com	44	0	7956 762385		https://facebook.com/222tattooparlour					25 Bridge Street	Aberystwyth	Ceredigion	Wales	SY23 1DW	UK	52.4132112	-4.0857487
457f62ca6bccd0f3f6d3a5de4fe9835a			Dafforne House Of Beauty						44	0									Aberystwyth	Ceredigion	Wales	SY23	UK	52.415303	-4.08292
d9ed24765cf5d4dda148caf949a0261d			Probert & Williams Eye Care						44	0									Aberystwyth	Ceredigion	Wales	SY23	UK	52.415303	-4.08292
fb46c0e3027557050d4b1ac603f06175	campsiriol 		Campsiriol 	Maes gwersylla, iwrt moethus, twb poeth a chartref gwyliau yn hardd, arfordirol Canolbarth Cymru.	Campsite, luxury yurt, hot tub & holiday home in beautiful, coastal Mid Wales.	🏢🛎🏕		campsiriol@gmail.com	44	0	7719 716273	https://linktr.ee/campsiriol	https://www.facebook.com/campsiriol	https://www.instagram.com/campsiriol	https://www.youtube.com/watch?v=-kbbtH21zns				Aberystwyth	Ceredigion	Wales	SY23	UK		
4a50dc791dc612b6512af13ca4cf05a6			Fine and Country West Wales 						44	0									Aberystwyth	Ceredigion	Wales	SY23	UK	52.415303	-4.08292
81ea3836abe12dcb4e6c1f5f5bc81320	charlenesbeautyboutique		Charlene’s Beauty Boutique 	Colur ~ Gemwaith ~ Ategolion	Makeup ~ Jewellery ~ Accessories								https://facebook.com/charlenesavon	https://instagram.com/charlenes_beauty16		https://www.tiktok.com/@charlenesbeauty		4a Portland Rd	Aberystwyth	Ceredigion	Wales	SY23 2NL	UK	52.4160576	-4.0832567
1da6ed96898ac321b8effba0abf0a560			Gwesty Cymru	Gwesty, bar gwin a choctel, teras tu allan, glan y môr.	Hotel, wine and cocktail bar, outside terrace, seaside.	🏢🛎🍷🍸			44	0									Aberystwyth	Ceredigion	Wales	SY23	UK	52.415303	-4.08292
9102308d9eada22aea37031d0904d8f1			The Original Tram Co	Pwdinau • Coffi • Toesenni • crepes & bull; Wafflau • Ysgytlaeth • Frappes •	Desserts • Coffee • Doughnuts • Crepes • Waffles • Milkshakes • Frappes • 	💧☕🍅🍦🍭			44	0									Aberystwyth	Ceredigion	Wales	SY23	UK	52.415303	-4.08292
707e8e22ec6c490616a819ce0a9ddaed	afonmel		Afon Mêl	Fferm Fel A Medd-dy. Busnes fferm wenyn fach deuluol wedi’i leoli ar gyrion Cei Newydd yng Ngorllewin Cymru.	Honey Farm & Meadery. A small, family-run bee farm business based on the outskirts of New Quay in West Wales.	💧🍺🍭🛒🍅🐝🍯		info@afonmel.com	44	0	1545 560822	https://www.afonmel.com	https://www.facebook.com/afonmeluk	https://www.instagram.com/afonmeluk/				New Quay Honey Farm, Cross Inn, 	New Quay	Ceredigion	Wales	SA44 6NN	UK	52.18226	-4.343558
bb9e799f45c4aeb308ea6f0b87f67733		Y Siop Lyfrau Cristnogol	The Christian Bookshop						44	0	1970 625005								Aberystwyth	Ceredigion	Wales	SY23	UK	52.415303	-4.08292
6d5342e046a4109c061dbc954f418f3c			Chives						44	0									Aberystwyth	Ceredigion	Wales	SY23	UK	52.415303	-4.08292
bf62735c6e5dd24beeb0e6d0b3f4929c	redvintagelighting		Red Vintage Lighting	Goleuadau hen ffasiwn unigryw wedi'u gwneud â llaw, ffynci. Goleuadau crog, canhwyllyr. Carwr gwydr.	Cool funky hand made unique vintage lighting. Pendant lights, chandeliers. Lover of glass.	🛍👛🕰			44	0	7939 365578	https://redvintagelighting.co.uk	https://facebook.com/redvintagelighting					4 Eastgate	Aberystwyth	Ceredigion	Wales	SY23 2AR	UK	52.4155473	-4.0846281
798da8f8438fcbde32aeac2b297d4132			Pawsome Feeds			🛍🐶			44	0									Aberystwyth	Ceredigion	Wales	SY23	UK	52.415303	-4.08292
ad3fe46dfb8ca039e147839fea6cf277		Siop Y Cogydd Yr Hen Bopty	Old Bakery Cookshop			🛍🧑‍🍳			44	0									Aberystwyth	Ceredigion	Wales	SY23	UK	52.415303	-4.08292
e6b2404aa666bc8b321ef4aaf3597bf0	untaichiqigong		Un Tai Chi	Mae Untaici Qigong yn hygyrch i bobl o bob oed a gallu.	UnTaiChi Qigong is accessible to people of all ages and abilities.	🌼💪		untaichi.qigong@gmail.com					https://facebook.com/untaichiqigong												
3922bdf20300d2091cf6deb368ac3897		Byddin Yr Iachawdwraiaeth	The Salvation Army	Siop Elusen	Charity Shop	🛍💝			44	0									Aberystwyth	Ceredigion	Wales	SY23	UK	52.415303	-4.08292
69d3155f92fdbec511954b55eaa813fe			Barnardo's						44	0									Aberystwyth	Ceredigion	Wales	SY23	UK	52.415303	-4.08292
82eee1559c85d9274fe96ffeedd1ebbe			The Works	Llyfrau disgownt a llawer mwy	Discount books and much more				44	0									Aberystwyth	Ceredigion	Wales	SY23	UK	52.415303	-4.08292
fcd871ecd23536d06f6131a6f817e3f1	themillinnaberystwyth		The Mill Inn	Tafarn dref wych gyda setiau teledu mawr ar gyfer yr holl ddigwyddiadau chwaraeon, bwrdd pŵl, jiwcbocs, a diodydd dethol i'w hyrwyddo.	A great town pub that has large tv's for all sporting events, pool table, juke box, and selected drinks on promotion.	💧🍺🎱🏆			44	0	1970 612306		https://facebook.com/profile.php?id=100080357745118						Aberystwyth	Ceredigion	Wales	SY23	UK	52.415303	-4.08292
7c64bb2d2a0ffba9d4c6993f5ca90efd			Nicely Hung	Fframiau Llun - Fframio ers 1999	Picture Frames - Framing since 1999				44	0									Aberystwyth	Ceredigion	Wales	SY23	UK	52.415303	-4.08292
801b9596463941f1e391fa233be00cc9			Hydia Day	Crefftau Cartref a Dodrefn Meddal	Homecraft & Soft Furnishings				44	0	1970 627147								Aberystwyth	Ceredigion	Wales	SY23	UK	52.415303	-4.08292
8c9ed066d3c0d8247670ea302c6dc6b5	samanthaboulangerartist		Samantha Boulanger Artist	Eco Artist - Ffotograffydd - Gwneuthurwr Printiau - Uwchseiclwr - Hwylusydd Gweithdy	Eco Artist - Photographer - Printmaker - Upcyclist - Workshop Facilitator 	🛍🖼🧶💌		samantha.boulanger@gmail.com				https://www.samanthaboulanger.uk/	https://www.facebook.com/samanthaboulangerartist/	https://www.instagram.com/samanthaboulangerartist/											
9397056bd62be90c5f84ead526066d94	kaotickittus		Kaotic Kittus	Yr Uwch-seiclwr Damweiniol. Finery eco ffynci wedi'i uwch-gylchu. Gweithdai uwch-gylchu/gwnïo creadigol.	The Accidental Up-cyclist. Funky up-cycled foraged eco finery. Up-cycling/creative sewing Workshops.	🛍🧶👚		kaotic.kittus@gmail.com				https://www.kaotickittus.uk/													
577d94fec7efe2c213cbd7b66aa09ab4			The Market Hall Café	Byrbrydau poeth ac oer, te a choffi	Hot and cold snacks, tea and coffee	💧☕🫖🍅🍦🍭			44	0								Market Hall	Aberystwyth	Ceredigion	Wales	SY23 1DW	UK	52.4136681	-4.0866994
3998efba191347caf74da86da66c0e7d			Joe's Ice Cream			🍅🍦			44	0								Market Hall	Aberystwyth	Ceredigion	Wales	SY23 1DW	UK	52.4136681	-4.0866994
37f7e41d90094684282c2e724b0f3221	abermusicwales		AberMusic	Gwersi Cerdd	Music Lessonsl	🎓🎸🎵		hello@abermusic.wales	44	0		https://abermusic.wales/	https://facebook.com/profile.php?id=100091877702342	https://instagram.com/abermusic.wales/	https://www.youtube.com/@AberMusicwales		https://twitter.com/abermusic_wales	Unit 7, Market Hall	Aberystwyth	Ceredigion	Wales	SY23 1DW	UK	52.4136681	-4.0866994
77bc429ce438176be033603c5b71f2f0			E.M. Vintage 	Dillad Vintage/Cariad Blaenorol	Vintage/Pre-loved Clothes				44	0								Market Hall	Aberystwyth	Ceredigion	Wales	SY23 1DW	UK	52.4136681	-4.0866994
443d9468a620869012eba11d3c86f836			MarketMusic						44	0								Market Hall	Aberystwyth	Ceredigion	Wales	SY23 1DW	UK	52.4136681	-4.0866994
6d673218069166707a47e8a881c601e0	sugarcaneartisancrumbs		Sugarcane Artisan Crumbs 	Busnes pobi cartref cofrestredig, wedi'i leoli yng nghanol tref Aberystwyth. Wedi'i bobi'n ffres o'r dechrau gyda chariad.	Registered home baking business, based in Aberystwyth town center. Freshly baked from scratch with love.	🍅🥖🛍		infosugarcanebakes@gmail.com					https://www.facebook.com/sugarcaneartisancrumbs	https://www.instagram.com/sugarcaneartisancrumbs/					Aberystwyth	Ceredigion	Wales	SY23	UK		
b4a7a57df62c45fa1c49f9654f472b64		Gitâr		gwerthu • trwsio • gwasanaethu • hyfforddiant • gwasanaethau recordio	sales • repairs • servicing• tuition • recording services				44	0								Market Hall	Aberystwyth	Ceredigion	Wales	SY23 1DW	UK	52.4136681	-4.0866994
15980612e6b6eaa7ac84b0a2d575e54c			Premier - Siop Castell						44	0									Aberystwyth	Ceredigion	Wales	SY23	UK	52.415303	-4.08292
bc27e3edc9630c80cc97a36d63e7c168	aberartshack		Aber Art Shack	Helo WuzzBuzz ydw i, rwy’n gwneud pob math o eitemau wedi’u gwneud â llaw o glociau i emwaith mewn pob math o ffyrdd creadigol a lliwgar!	Hi I’m WuzzBuzz, I make all sorts of handmade items from clocks to jewellery in all sorts of creative and colourful ways!				44	0				https://instagram.com/AberArtShack					Aberystwyth	Ceredigion	Wales	SY23	UK	52.415303	-4.08292
7d047d9829ae2a4b35b15ba64b361849			Pizzalush						44	0	1970 358903	https://www.pizzalush.com							Aberystwyth	Ceredigion	Wales	SY23	UK	52.415303	-4.08292
10c17a6f122fd799fdc51e0f9a9d8c0a			Juice 33						44	0									Aberystwyth	Ceredigion	Wales	SY23	UK	52.415303	-4.08292
80cad4f853258d593b744c456666ba4f	theedinburghwoollenmillaberystwyth		The Edinburgh Woolen Mill in Aberystwyth	EWM Dillad dynion a merched	EWM Mens and ladies clothing	🛍👚			44	0		https://www.ewm.co.uk	https://facebook.com/profile.php?id=100090992924151	https://instagram.com/theedinburghwoollenmill/				46 Great Darkgate St	Aberystwyth	Ceredigion	Wales	SY23 1DE	UK	52.4140216	-4.0858052
6e4620de236e0b4157d7f9b969814821			Chihaul Crafts						44	0									Aberystwyth	Ceredigion	Wales	SY23	UK	52.415303	-4.08292
38ff670b4408bf8d1acf1789bcd3fc7b	abercraftssociety		Aber Crafts Society	Cymdeithas o gelf a chrefft! Defnyddiwch #AberCrafts neu tagiwch ni i rannu eich crefftau gyda ni! 🎨🪡🧶🪢	A society of arts and crafts! Use #AberCrafts or tag us to share your crafts with us! 🎨🪡🧶🪢	👥🧶								https://instagram.com/aber_crafts_society/											
12e149a6648c931d04daaa9b621a89d3			Accessorize			🛍👛			44	0									Aberystwyth	Ceredigion	Wales	SY23	UK	52.415303	-4.08292
e0efbfb252be31b79c082a63d9785e39	senseaberystwyth		Sense	cysylltu golwg, sain a bywyd	connecting sight, sound, and life	🛍💝		aberystwyth@sense.org.uk	44	0	1970 600243	https://sense.org.uk	https://facebook.com/profile.php?id=100083300322641	https://instagram.com/sense_aberystwyth/				35 Great Darkgate Street	Aberystwyth	Ceredigion	Wales	SY23 1DE	UK	52.4144836	-4.0854119
35f84727c09ae8493430c82ba6238bad			Harry's		Hotel • Bar • Bistro							https://www.harrysaberystwyth.com/													
2fd37969edf0949513aa7e32a6f9a877		Yr Eidal Fach	Little Italy		Italian Restaurant																				
985796161bc72f726f22941cd6227327			Spartacus		Baguettes • Paninis • Rolls • Sandwiches • Tea • Coffee																				
5fb21578668433972ce120f3b0c27f0a	borthanamalarium		Borth Animalarium	Y parc anifeiliaid bach gyda chalon fawr	The little animal park with a big heart	🏛🎈🦁		tracytweedy@hotmail.com	44	0	7957 775581	https://www.borthzoo.co.uk/	https://facebook.com/BorthAnimalPark	https://instagram.com/borthanimalarium/				Ynys fergi	Borth	Ceredigion	Wales	SY24 5NA	UK	52.4864979	-4.0446138
b0b02a9a790b3ca8d290a9e1205713dc	themagicoflifebutterflyhouse		The Magic of Life Butterfly House	Cerddwch i mewn i fyd o ieir bach yr haf trofannol sy'n hedfan yn rhydd. Y tu mewn yng nghanol dyffryn Rheidol.	Walk into a world of free-flying tropical butterflies. Indoors in the heart of the Rheidol Valley.	🏛🎈🦁		info@magicoflife.org	44	0	1970 880928	https://www.magicoflife.org	https://facebook.com/TheMagicOfLifeButterflyHouse	https://instagram.com/magic_of_life_butterfly_house/											
aeabc0c713eb1390e5a9080f5c268ebe	libinus1877		Libinus 1877	Mae Libanus 1877 yn cynnig cyfle unigryw i chi weld blockbuster mewn moethusrwydd llwyr!	Libanus 1877 offers you a unique opportunity to view a blockbuster in complete luxury!	🏫🎥		libanus1877@icloud.com	44	0	1970 871042	https://libanus1877.com/	https://facebook.com/libanus1877					Gerlan Chapel, High St	Morfa Borth	Ceredigion	Wales	SY24 5JA	UK	52.4878972	-4.0511302
1f41f676f36aa3d90cbaa2d41ad7bada	thehiveaberaeron		The Hive, Aberaeron			🍅🍽🫖☕🍦						https://www.thehiveaberaeron.com/													
340b28cb650e697be0ffbb26de05990e	thenewcelticaberaeron		The New Celtic, Aberaeron			🍅🍽🍸🍷						https://www.newceltic.co.uk/													
a3c517be24092f92cd27a83719b2959d			George's 	Barbwr Traddodiadol	Traditional Barber																				
69c4708fd44c514af7b2e616bfd29aca			Hot Dumplings																						
aaf5fdd40d73f5b570f95b923c05ceb2	moriathglass		Moriath Glass	Tirweddau Gwydr a Gemwaith	Glass Landscapes & Jewellery			info@moriathglass.co.uk				https://moriathglass.co.uk/	https://www.facebook.com/MoriathGlass/	https://www.instagram.com/moriathglass											
649f61d02db754d1c0e902e1ecf2f79a			Andy's Records																						
4f84feaaa40ca374b13bcef851ff57fc			Four Seasons		Hotel & Restaurant				44	0	1970 612120	https://www.fourseasonshotel.biz													
70ee72e361189ba97b6750e799c98777	getfitterandstrongerwithjan		Get Fitter & Stronger with Jan 	Dosbarthiadau cryfder a symudedd wedi'u teilwra i wahanol lefelau. Sesiynau hyfforddi personol. Cymhwyster llawn, wedi'i gofrestru ac wedi'i yswirio. Dewch i hyfforddi gyda mi.	Strength & mobility classes tailored to different levels. Personal training sessions. Fully qualified, registered & insured. Come and train with me.	🌼💪							https://facebook.com/profile.php?id=100065650206331												
9edb684dcf392a534241e1becb5cdc7f		Ddeintyddfa Stryd Portland	Portland Street Dental Practice																						
ff8dd7a4a5189316fdab58068861f3b2			Family Shopper & Beer Cave 																						
bed90bccfd7a4f520672d242bef09c5e			Sophisticut																						
0f4fd741b5618783d7a379fddb7678fe			Kim Rees																						
8239c09b5018cb036d2896644a830742	dominospizzaaberystwyth		Domino's Pizza - Aberystwyth	Pizza	Pizza	🍅🍕			44	0	1970 612111	https://www.dominos.co.uk/pizza-near-me/aberystwyth/unit-1-the-barn-centre						Unit 1 The Barn Centre	Aberystwyth	Ceredigion	Wales	SY23 1LN	UK	52.4151046	-4.0802189
f3952f38010dc72eb4098f6f69af8373			The Welsh Quilt Centre						44	0	1570 422 088	https://www.welshquilts.com						The Town Hall, High Street	Lampeter	Ceredigion	Wales	SA48 7BB	UK	52.1131368	-4.0801821
a0a53d61f39b095214bedbecb591ad86	corriscraftcentre		Corris Craft Center	Y ganolfan grefftau orau yng Nghymru: canhwyllau crochenwaith llestri gwydr dodrefn gemwaith siocledi gwaith celf gin gwlân lledr. Bwyd a diod flasus.	The Best Craft Centre in Wales: Pottery Candles Glassware Jewellery Furniture Chocolates Artwork Leather Wool Gin. Delicious Food & Drink.			info@corriscraftcentre.co.uk	44	0	1654 761584	https://www.corriscraftcentre.co.uk/	https://www.facebook.com/CorrisCraftCentre/	https://www.instagram.com/corriscraft/			https://twitter.com/CorrisCrafts	Corris	Machynlleth	Ceredigion	Wales	SY20 9RF	UK	52.653861	-3.8398249
931d595a8db950add394a2d417d5f1af		Canolfan Podiatreg Aberystwyth	Aberystwyth Podiatry Centre																						
7d91ec827a1cd4c5e2f9e1d44dd8c269			WHSmith																						
d727a5fd41f7b5fd39babdf4ad0ac85a	willbromhamosteopathy		Will Bromham Osteopathy	Rydym yn helpu pobl sy'n dioddef o boen asgwrn cefn i fyw bywydau hapusach ac iachach.	We help people who suffer with spinal pain to live happier healthier lives.	🌼👩‍⚕️		willbromhamosteopathy@gmail.com	44	0	7935 813147	https://willbromhamosteopathy.co.uk	https://www.facebook.com/profile.php?id=100089333971444					Blaenplwyf	Aberystwyth	Ceredigion	Wales	SY23 4BL	UK	52.3582652	-4.0920735
6f0cf7aae52d08b3f31390c1c8aafea8		tenous gofal canser	tenous cancer care	Estyn gobaigth. Estyn llaw.	Give hope. Help cope.																				
59d2fb3373c523bec12180dad0f7e8b4		Blwch Sglodion	Fish & Chips																						
96cb3e2535d967596dd5ffd9b750e8a0		Psygodyn A Sglodion	Fish & Chips on the Pier	Bwytewch Ar Y Pier Neu Ei Gymrydn Gludfwwyd	Seating Inside. Contactless Pay. Free WiFi.																				
aeb5092e38b7a4ca110e220ed4ee112c	llanerchaeron		National Trust - Llanerchaeron	Tŷ Sioraidd, gerddi, buarth ac ystâd yng Ngheredigion dan ofal Ymddiriedolaeth Genedlaethol Cymru	Georgian house, gardens, farmyard and estate in Ceredigion cared for by National Trust Cymru	🏫🏛🏞🥾		llanerchaeron@nationaltrust.org.uk	44	0	1545 570200	https://www.nationaltrust.org.uk/visit/wales/llanerchaeron	https://www.facebook.com/Llanerchaeron.NationalTrust	https://www.instagram.com/llanerchaeronnt/				Llanerchaeron, A482, Ciliau Aeron	Lampeter	Ceredigion	Wales	SA48 8DG	UK		
cabefa5f5cda517c98b334f3e20c74d1			Centre for Alternative Technology									https://cat.org.uk													
2c5cc44df7f68e0c396f88d89be3eaa0	is-aberystwyth-worth-visiting-by-glen-and-rhonda		Is Aberystwyth worth a visit?		By Glen And Rhonda	🎞									https://www.youtube.com/watch?v=dZIWwucinFY										
09455980b0092a9d0850cb399caefebe	should-you-visit-aberystwyth-by-walk-with-me-tim		Should you visit Aberystwyth? 		By Walk With Me Tim	🎞									https://www.youtube.com/watch?v=XnEKhuBnj38										
160eb6793010eef0c421b799c07ae124	aberystwyth-through-time-then-vs-now-by-the-time-travel-artist		Aberystwyth Through Time - Then vs Now		By The Time Travel Artist.	🎞									https://www.youtube.com/watch?v=a9eFvSz8iO0										
320cc82bed5efc75fb24eb2a919ed48b	top-10-things-to-do-in-aberystwyth-by-alextravels		 Top 10 Things To Do in Aberystwyth | Wales Travel Guide 		By AlexTravels										https://www.youtube.com/watch?v=j4vlKFHGbtI										
c09120f756c04a016686fbaead0210a6			Queensbridge Hotel	Gwesty	Hotel	🏢🛎		queensbridgehotel@btinternet.com	44	0	1970 612 343	https://queensbridgehotel.com/						Victoria Terrace	Aberystwyth	Ceredigion	Wales	SY23 2DH	UK	52.4210313	-4.0845284
79d09df9802268de52fa98babe12c570	cardiganbaygueshouseaberystwyth		Cardigan Bay Guest House	Gwesty	Hotel	🏢🛎		shelley-guesthouse@hotmail.co.uk	44	0	1970 600420	https://www.cardiganbayguesthouse.co.uk/	https://facebook.com/CardiganBayGuestHouse/					63 Marine Terrace	Aberystwyth	Ceredigion	Wales	SY23 2BX	UK	52.4194805	-4.0844337
53e97069dadad44d339933963e74afda	premierinnaberystwyth		Premier Inn - Aberystwyth	Gwesty	Hotel	🏢🛎			44	0	0333 234 6529	https://www.premierinn.com/gb/en/hotels/wales/dyfed/aberystwyth/aberystwyth.html						36-37 Marine Terrace	Aberystwyth	Ceredigion	Wales	SY23 2BX	UK	52.4176885	-4.0840304
8f04473ab29991919f9a1fd37ee5912e			Brynawel Guest House 	Gwesty	Hotel	🏢🛎													Aberystwyth	Ceredigion	Wales	SY23	UK	52.415303	-4.08292
24368955701c516c6364fe74a67bce2f		Hafod Hotel	Yr Hafod	Gwesty eang ac ymlaciol gyda swyn gwych, lleoliad diguro, bwyd o safon, ystafelloedd moethus gyda golygfa, a thirweddau gwyllt.	A spacious and relaxing hotel with great charm, unbeatable location, quality food, luxury rooms with a view, and wild landscapes.	🏢🛎						https://thehafod.co.uk/						Devils Bridge	Aberystwyth	Ceredigion	Wales	SY23 3JL	UK	52.3770599	-3.8510549
9371c184d1186d0d2ef03a7b654f8d13			Mobile Care	Ffonau a Rhyngrwyd a Gwasanaethau	Phones & Internet & Services	🛍📱			44	0									Aberystwyth	Ceredigion	Wales	SY23	UK	52.415303	-4.08292
aa7084bd716f9c3c52cf57e6c05ccf36			Get Connected	Ffonau a Rhyngrwyd a Gwasanaethau	Phones & Internet & Services	🛍📱			44	0									Aberystwyth	Ceredigion	Wales	SY23	UK	52.415303	-4.08292
191539e7aee7a05c843eb0d96b97e52d	threeaberystwyth		Three	Ffonau a Rhyngrwyd a Gwasanaethau	Phones & Internet & Services	🛍📱			44	0		https://www.three.co.uk/	https://locator.three.co.uk/south/aberystwyth/3-north-parade					3 N Parade	Aberystwyth	Ceredigion	Wales	SY23 2JH	UK	52.4149342	-4.0832256
2de48b9881c104d61703328e2f518095	eeaberystwyth		EE		This is New EE. The place for info on home, learn, work and game.	🛍📱			44	0		https://ee.co.uk/	https://facebook.com/ee	https://instagram.com/ee/					Aberystwyth	Ceredigion	Wales	SY23	UK	52.415303	-4.08292
be8b9c5b5e869c6381e17eef00860ae6	vodaphone		Vodaphone	Ffonau a Rhyngrwyd a Gwasanaethau	Phones & Internet & Services	🛍📱			44	0		https://www.vodafone.com/	https://facebook.com/pages/Vodaphone/114141035268111						Aberystwyth	Ceredigion	Wales	SY23	UK	52.415303	-4.08292
39cef106117b858bd4ca1df08ea14d5d	natwest		NatWest Cymru	Banc	Bank	🏢🏦🏧			44	0		https://www.natwest.com/	https://facebook.com/NatWest					Owain Glyndwr Sq	Aberystwyth	Ceredigion	Wales	SY23 2ND	UK	52.4151322	-4.0833738
ecaeeda130539ea13ccd671e2cb8c491	hsbcuk		HSBC	Banc	Bank	🏢🏦🏧						https://hsbc.co.uk	https://facebook.com/HSBCUK	https://instagram.com/hsbc_uk/											
14d6eddad17cec187ee93929fde5f9b9	santander		Santander	Banc	Bank	🏢🏦🏧			44	0		https://www.santander.co.uk/	https://facebook.com/santanderuk	https://instagram.com/santanderuk				1 Great Darkgate St	Aberystwyth	Ceredigion	Wales	SY23 1DE	UK	52.4150843	-4.0837086
d6916eb1aa36b652a1892e2c39db225b	tsb		TSB	Banc	Bank	🏢🏦🏧			44	0		https://www.tsb.co.uk/	https://facebook.com/TSBbankUK	https://instagram.com/tsbbank/				12 Terrace Rd	Aberystwyth	Ceredigion	Wales	SY23 1NP	UK	52.4148836	-4.0825351
3dfa48828efefee2767e81bf3b1a75ae	halifaxbank		Halifax	Banc	Bank	🏢🏦🏧			44	0		https://www.halifax.co.uk/	https://facebook.com/halifax	https://instagram.com/halifax/				5 Great Darkgate St	Aberystwyth	Ceredigion	Wales	SY23 1DE	UK	52.4150225	-4.0838949
9394f0baa4f34dbc668e8f19211d3f53	nationwidebuildingsociety		Nationwide	Banc	Bank	🏢🏦🏧			44	0		https://www.nationwide.co.uk/	https://facebook.com/NationwideBuildingSociety	https://instagram.com/nationwidebuildingsociety/				7 Great Darkgate St	Aberystwyth	Ceredigion	Wales	SY23 1DE	UK	52.4150252	-4.0842119
5ff68588cd582bff39665d58deb0930c	toilet-uk-sy231lf-9-park-avenue	Toiled Cyhoeddus	Public Toilet		Park Avenue	🚻												9 Park Avenue	Aberystwyth	Ceredigion	Wales	SY23 1LF	UK	52.4120761	-4.0812404
19147a73f429696eaa2dacb56c155b01	toilet-uk-sy232bx-46-marine-terrace	Toiled Cyhoeddus	Public Toilet		North Prom	🚻												46 Marine Terrace	Aberystwyth	Ceredigion	Wales	SY23 1LF	UK	52.418364	-4.0840907
343c8ada70fa8c84811af1d850b28f94	toilet-uk-sy232au-castle-grounds	Toiled Cyhoeddus	Public Toilet		Castle Grounds	🚻												Castle Grounds	Aberystwyth	Ceredigion	Wales	SY23 2AU	UK	52.4131531	-4.0887681
e92546f00f2a094834692d78009cda96	toilet-uk-sy231jy-south-marine-terrace	Toiled Cyhoeddus	Public Toilet		South Prom	🚻												South Marine Terrace	Aberystwyth	Ceredigion	Wales	SY23 1JY	UK	52.409144	-4.089003